program_id,program_name,pdf,Address,City,Zip,Begin-Time,Building-Approval-Date,End-Time,Fire-Inspection-Approval-Date,Food-Service-Risk-Level,Inspection-Date,Inspection-Notice,Inspection-Scope,Infant-Full-Time,Infant-Part-Time,Infant-Total,Older-Toddler-Full-Time,Older-Toddler-Part-Time,Older-Toddler-Total,Preschool-Full-Time,Preschool-Part-Time,Preschool-Total,School-Age-Full-Time,School-Age-Part-Time,School-Age-Total,Total-Capacity-Enrollment-Full-Time,Total-Capacity-Enrollment-License-Capacity,Total-Capacity-Enrollment-Part-Time,Total-Capacity-Enrollment-Total,Total-Under-2-Years-Full-Time,Total-Under-2-Years-License-Capacity,Total-Under-2-Years-Part-Time,Total-Under-2-Years-Total,Young-Toddler-Full-Time,Young-Toddler-Part-Time,Young-Toddler-Total,Maximum-Under-2,No-Low-Risk,No-Moderate-Risk,No-Rules-with-Non-compliances,No-Serious-Risk,Occupancy-Limit,Program-Name,Reviewer,Use-Group-Code
100093,KIDSTOWN CHILDCARE AND PRESCHOOL,https://childcaresearch.ohio.gov//pdf/000000100093_2024-02-07_ANNUAL.pdf,55 STADIUM DRIVE,BOARDMAN,44512,10:57 AM,09/27/2022,5:19 PM,09/06/2023,Level III,02/07/2024,Unannounced,Full,22,0,22,10,0,10,58,0,58,0,20,20,68,193,20,131,43,56,0,43,21,0,21,,4,0,4,0,186,Kidstown Childcare and Preschool,KATHLEEN BONACCI,E
100253,GROWING KIDS ACADEMY,https://childcaresearch.ohio.gov//pdf/000000100253_2024-07-25_ANNUAL.pdf,2935 SUITE #1 MARKET STREET,YOUNGSTOWN,44507,9:15 AM,09/13/1972,1:11 PM,08/22/2018,Exempt,10/15/2024,Unannounced,Full,0,0,0,0,0,0,0,19,19,0,0,0,0,45,19,19,0,0,0,0,0,0,0,29,12,1,9,0,200,COVENANT CHILDREN'S ACADEMY,Rebecca Worrell,BB 303 (pre 1970)
100365,YMCA CHILD CARE @ AVONDALE ELEMENTARY,https://childcaresearch.ohio.gov//pdf/000000100365_2024-09-11_ANNUAL.pdf,3933 EATON DR. NW,CANTON,44708,9:00 AM,02/21/1997,11:30 AM,09/20/2024,Level II,10/02/2024,Unannounced,Full,11,0,11,0,0,0,21,0,21,0,0,0,21,44,0,32,11,21,0,11,0,0,0,2½,9,2,10,0,100,A BRIGHTER START CHILDCARE,Kristin Blassingame,E with 1-2
100402,HEAD START AT DAVID BACON,https://childcaresearch.ohio.gov//pdf/000000100402_2024-11-25_ANNUAL.pdf,181 STRECKER DRIVE,TALLMADGE,44278,9:30 AM,03/04/2002,1:13 PM,10/20/2023,Level III,07/08/2024,Unannounced,Full,11,0,11,10,0,10,37,0,37,31,0,31,78,112,0,94,16,24,0,16,5,0,5,5,6,1,6,0,5,KINDERCARE LEARNING CENTER #124,BRENDA MEYER,E
100421,THE LEARNING TREE CHILDCARE CENTER LLC,https://childcaresearch.ohio.gov//pdf/000000100421_2024-07-10_ANNUAL.pdf,76 S MARKET ST,EAST PALESTINE,44413,9:35 AM,09/24/2009,1:10 PM,03/07/2024,Exempt,08/09/2024,Unannounced,Full,6,0,6,0,0,0,12,0,12,6,0,6,18,33,0,29,11,23,0,11,5,0,5,144,7,1,7,0,289,A CHILD'S JOURNEY LEARNING CENTER,STEPHANIE WALTERS,E
101128,YWCA CANTON EARLY CHILDHOOD LEARNING CENTER,https://childcaresearch.ohio.gov//pdf/000000101128_2024-12-03_ANNUAL.pdf,231 SIXTH STREET N.E.,CANTON,44702,9:30 AM,01/03/2000,2:00 PM,07/22/2024,Level III,12/03/2024,Unannounced,Full,15,0,15,19,0,19,13,0,13,0,0,0,32,150,0,58,26,58,0,26,11,0,11,12,9,0,8,0,,"YWCA Canton Early Childhood Learning
Center",TONYA WASHINGTON,E with 1-2
101640,MONTESSORI PRESCHOOL OF COSHOCTON INC,https://childcaresearch.ohio.gov//pdf/000000101640_2024-10-30_ANNUAL.pdf,142 N FOURTH ST,COSHOCTON,43812,10:35 AM,07/07/2003,12:55 PM,08/22/2024,Level II,10/30/2024,Unannounced,Full,0,0,0,0,0,0,12,30,42,0,0,0,12,49,30,42,0,0,0,0,0,0,0,,0,0,0,0,49,"MONTESSORI PRESCHOOL OF COSHOCTON
INC",SARAH HEIL-HINTON,E
101906,WINONA METHODIST PRESCHOOL,https://childcaresearch.ohio.gov//pdf/000000101906_2024-12-11_ANNUAL.pdf,32114 WINONA RD,WINONA,44493,9:30 AM,10/23/2000,12:50 PM,08/28/2024,Exempt,12/11/2024,Unannounced,Full,0,0,0,0,0,0,0,18,18,0,0,0,0,46,18,18,0,5,0,0,0,0,0,,1,1,2,0,50,WINONA UNITED METHODIST PRESCHOOL,SHERI BAILEY,E
102387,VILLA MARIA TERESA,https://childcaresearch.ohio.gov//pdf/000000102387_2024-12-18_ANNUAL.pdf,50 WARNER RD,HUBBARD,44425,9:15 AM,01/30/1999,11:42 AM,11/05/2024,Level III,12/18/2024,Unannounced,Full,0,0,0,0,0,0,21,16,37,0,0,0,21,90,16,37,0,0,0,0,0,0,0,,4,1,5,0,100,VILLA MARIA TERESA,Tamela Green,
102811,VALLEY KIDS,https://childcaresearch.ohio.gov//pdf/000000102811_2024-09-09_ANNUAL.pdf,1670 AKRON PENINSULA RD,AKRON,44313,11:30 AM,04/12/1993,3:00 PM,11/08/2023,Level III,09/09/2024,Unannounced,Full,5,0,5,4,0,4,7,0,7,0,19,19,11,60,19,38,8,26,0,8,3,0,3,26,16,2,15,0,86,Valley Kids,TONYA WASHINGTON,E
103519,"JUST FOR KIDS CHILD CARE AND LEARNING CENTER, INC.",https://childcaresearch.ohio.gov//pdf/000000103519_2024-08-06_ANNUAL.pdf,10313 SOUTH ST,GARRETTSVILLE,44231,10:30 AM,12/24/1998,4:00 PM,02/05/2024,Level III,08/06/2024,Unannounced,Full,11,0,11,13,0,13,28,0,28,35,0,35,76,163,0,94,18,56,0,18,7,0,7,,7,0,7,0,185,"JUST FOR KIDS CHILD CARE AND LEARNING
CENTER, INC.",BETH RAGLE,E
104265,CHILDTIME LEARNING CENTER,https://childcaresearch.ohio.gov//pdf/000000104265_2024-10-16_ANNUAL.pdf,3101 GRAHAM RD,STOW,44224,9:30 AM,06/23/2023,4:30 PM,10/11/2024,Level III,10/16/2024,Unannounced,Full,12,0,12,0,0,0,32,0,32,0,39,39,32,90,39,99,28,36,0,28,16,0,16,,12,0,9,0,90,CHILDTIME LEARNING CENTER,BETH RAGLE,E
104712,HARTZ EARLY CARE AND EDUCATION CENTER,https://childcaresearch.ohio.gov//pdf/000000104712_2023-10-24_ANNUAL.pdf,230 STOW AVENUE,CUYAHOGA FALLS,44221,9:30 AM,09/18/2019,1:45 PM,01/10/2023,Level II,10/24/2023,Unannounced,Full,4,0,4,0,0,0,20,0,20,0,0,0,20,58,0,30,10,26,0,10,6,0,6,,4,3,7,0,58,Hartz Early Care and Education Center,SHERI BAILEY,E
106298,KOZMIC KORNER INC,https://childcaresearch.ohio.gov//pdf/000000106298_2024-07-01_ANNUAL.pdf,8282 PORT JACKSON AVE NW,NORTH CANTON,44720,8:00 PM,03/31/2005,9:00 PM,05/09/2024,Level III,07/01/2024,Unannounced,Full,6,0,6,5,0,5,32,0,32,12,0,12,,,,,16,51,0,16,10,0,10,,8,0,6,0,218,KOZMIC KORNER INC,TONYA WASHINGTON,E
106850,HEAD START AT CEDAR,https://childcaresearch.ohio.gov//pdf/000000106850_2024-01-24_ANNUAL.pdf,442 BELL STREET,AKRON,44307,11:15 AM,07/13/2000,2:00 PM,01/16/2024,Level III,01/24/2024,Unannounced,Full,6,0,6,6,0,6,17,0,17,16,0,16,39,78,0,51,12,29,0,12,6,0,6,29,0,0,0,0,78,Head Start at Cedar,JENNIFER COPE,E
107064,A PLACE FOR EVERYONE LLC,https://childcaresearch.ohio.gov//pdf/000000107064_2024-12-10_ANNUAL.pdf,5192 DARROW RD,HUDSON,44236,11:10 AM,10/02/2009,3:00 PM,12/21/2023,Exempt,12/10/2024,Unannounced,Full,5,0,5,3,0,3,15,0,15,0,0,0,18,41,0,33,15,19,0,15,10,0,10,,14,0,12,0,45,A PLACE FOR EVERYONE LLC,SARAH HEIL-HINTON,E
200015,PRIMROSE SCHOOL AT WEST CHESTER,https://childcaresearch.ohio.gov//pdf/000000200015_2024-10-21_ANNUAL.pdf,8378 PRINCETON GLENDALE ROAD,WEST CHESTER,45069,9:15 AM,07/22/2010,11:00 AM,09/06/2022,Level III,10/21/2024,Unannounced,Full,9,0,9,8,0,8,34,0,34,14,0,14,56,182,0,81,25,58,0,25,16,0,16,,6,1,6,0,200,PRIMROSE SCHOOL AT WEST CHESTER,Nicole Vadnais,E with 1-2
200185,YMCA AT RUSHMORE,https://childcaresearch.ohio.gov//pdf/000000200185_2024-10-17_ANNUAL.pdf,7701 BERCHMAN,HUBER HEIGHTS,45424,6:45 AM,,8:00 AM,,Exempt,10/17/2024,Unannounced,Full,0,0,0,0,0,0,0,0,0,0,21,21,0,72,21,21,0,0,0,0,0,0,0,,1,0,1,0,,YMCA AT RUSHMORE,Carlie Bennett,School Building
200348,YMCA SCHOOL AGE ENRICHMENT PROGRAM @ DECA PREP,https://childcaresearch.ohio.gov//pdf/000000200348_2024-11-01_ANNUAL.pdf,249 SQUIRREL ROAD,DAYTON,45405,2:50 PM,,4:20 PM,09/24/2018,Exempt,11/04/2024,Unannounced,Full,0,0,0,0,0,0,0,0,0,0,28,28,0,54,28,28,0,0,0,0,0,0,0,,8,1,8,0,,"YMCA SCHOOL AGE ENRICHMENT
PROGRAM @ DECA PREP",Carlie Bennett,
200371,COVENANT CHILDREN'S ACADEMY,https://childcaresearch.ohio.gov//pdf/000000200371_2024-10-15_ANNUAL.pdf,201 N LIMESTONE ST,SPRINGFIELD,45503,9:15 AM,09/13/1972,1:11 PM,08/22/2018,Exempt,10/15/2024,Unannounced,Full,0,0,0,0,0,0,0,19,19,0,0,0,0,45,19,19,0,0,0,0,0,0,0,,12,1,9,0,,COVENANT CHILDREN'S ACADEMY,Rebecca Worrell,BB 303 (pre 1970)
200377,XENIA YMCA CHILD CARE CENTER,https://childcaresearch.ohio.gov//pdf/000000200377_2024-12-23_ANNUAL.pdf,336 S.PROGRESS DRIVE,XENIA,45385,9:10 AM,12/28/2018,10:05 AM,01/11/2019,Exempt,12/23/2024,Unannounced,Full,0,0,0,0,0,0,0,0,0,30,0,30,30,365,0,30,0,0,0,0,0,0,0,,6,1,6,0,,XENIA YMCA CHILD CARE CENTER,KEYAUNA BABER,E
200493,CEDARVILLE LEARNING CENTER,https://childcaresearch.ohio.gov//pdf/000000200493_2024-01-12_ANNUAL.pdf,296 N MAIN ST,CEDARVILLE,45314,8:30 AM,09/05/2013,11:00 AM,07/27/2023,Exempt,01/12/2024,Unannounced,Full,5,0,5,0,0,0,27,0,27,0,0,0,27,87,0,42,15,18,0,15,10,0,10,35,3,0,3,0,112,CEDARVILLE LEARNING CENTER,Steffani Roberts,E
200584,"TREE HOUSE CHILDCARE, INC.",https://childcaresearch.ohio.gov//pdf/000000200584_2024-10-29_ANNUAL.pdf,949 HARRISON AVE,HARRISON,45030,8:50 AM,,5:20 PM,06/07/2018,Level III,10/29/2024,Unannounced,Full,4,0,4,2,0,2,31,38,69,1,42,43,34,173,80,125,11,40,0,11,7,0,7,,6,2,8,0,245,"TREE HOUSE CHILDCARE, INC.",PAMELA DAUDISTEL,
200585,OUR FATHER CHILDREN'S CENTER,https://childcaresearch.ohio.gov//pdf/000000200585_2024-09-16_ANNUAL.pdf,11505 LINCOLNSHIRE,FOREST PARK,45240,9:50 AM,01/27/2014,3:15 PM,12/14/2017,Level III,09/16/2024,Unannounced,Full,2,0,2,0,0,0,5,0,5,17,0,17,22,43,0,26,4,13,0,4,2,0,2,,9,0,9,0,67,OUR FATHER CHILDREN'S CENTER,BRIAN CHASTAIN,E
200644,A GREAT START PRESCHOOL INC,https://childcaresearch.ohio.gov//pdf/000000200644_2024-11-21_ANNUAL.pdf,7001 FAR HILLS AVE,DAYTON,45459,10:00 AM,07/15/2024,11:45 AM,08/28/2024,Exempt,11/21/2024,Unannounced,Full,0,0,0,0,30,30,0,192,192,0,34,34,0,94,256,262,0,9,6,6,0,6,6,,0,0,0,0,105,A GREAT START PRESCHOOL INC,BRENDA MEYER,
200683,CHILD FOCUS PRESCHOOL PROGRAM AT THOMASTON WOODS,https://childcaresearch.ohio.gov//pdf/000000200683_2024-12-12_ANNUAL.pdf,1460 THOMASTON WOODS DRIVE,AMELIA,45102,9:20 AM,,10:50 AM,04/04/2024,Level II,12/12/2024,Unannounced,Full,0,0,0,0,0,0,17,0,17,0,0,0,17,43,0,17,0,0,0,0,0,0,0,,0,0,0,0,,"Child Focus Preschool Program at
Thomaston Woods",SULYN ROMER,
200719,KINDERCARE LEARNING CENTER #123,https://childcaresearch.ohio.gov//pdf/000000200719_2024-08-15_ANNUAL.pdf,418 W WENGER RD,ENGLEWOOD,45322,9:00 AM,04/15/1976,12:00 PM,11/20/2018,Level III,08/15/2024,Unannounced,Full,10,0,10,13,0,13,30,0,30,0,37,37,43,100,37,93,13,35,0,13,3,0,3,2½,8,0,8,0,100,KINDERCARE LEARNING CENTER #123,Steffani Roberts,"BB 61 (1972-
1979)"
200913,TINY STEPS DEVELOPMENT CENTER INC.,https://childcaresearch.ohio.gov//pdf/000000200913_2024-07-29_ANNUAL.pdf,6001 MADISON RD,CINCINNATI,45227,8:35 AM,06/02/2021,11:55 AM,09/12/2023,Level III,07/29/2024,Unannounced,Full,12,0,12,4,0,4,18,0,18,18,0,18,40,78,0,62,22,35,0,22,10,0,10,,7,0,7,0,,TINY STEPS DEVELOPMENT CENTER INC.,BRIAN CHASTAIN,
200947,YOUTHLAND ACADEMY OF BLUE ASH,https://childcaresearch.ohio.gov//pdf/000000200947_2024-08-13_ANNUAL.pdf,9280 PLAINFIELD RD,CINCINNATI,45236,8:40 AM,02/21/1997,3:00 PM,11/29/2017,Level III,08/13/2024,Unannounced,Full,13,0,13,7,0,7,26,0,26,18,0,18,51,161,0,74,23,79,0,23,10,0,10,,8,0,7,0,,YOUTHLAND ACADEMY OF BLUE ASH,KIM SUERMANN,E with 1-2
200979,A BRIGHTER START CHILDCARE,https://childcaresearch.ohio.gov//pdf/000000200979_2024-10-02_ANNUAL.pdf,2765 BLUE ROCK RD.,CINCINNATI,45239,9:00 AM,,11:30 AM,09/20/2024,Level II,10/02/2024,Unannounced,Full,11,0,11,0,0,0,21,0,21,0,0,0,21,44,0,32,11,21,0,11,0,0,0,,9,2,10,0,,A BRIGHTER START CHILDCARE,Kristin Blassingame,
201348,WEE-CARE LEARNING CENTER,https://childcaresearch.ohio.gov//pdf/000000201348_2024-07-09_ANNUAL.pdf,4886 STATE ROUTE 125,GEORGETOWN,45121,10:20 AM,06/19/2019,12:55 PM,08/22/2023,Level III,07/09/2024,Unannounced,Full,7,0,7,8,0,8,23,0,23,72,0,72,103,100,0,122,19,16,0,19,12,0,12,0,4,2,6,0,18,WEE-CARE LEARNING CENTER,BRIAN CHASTAIN,E
201452,IVY'S UNIQUE KIDS INC.,https://childcaresearch.ohio.gov//pdf/000000201452_2024-11-05_ANNUAL.pdf,2065 SCHAPPELLE LANE,FOREST PARK,45240,8:30 AM,,10:30 AM,06/14/2024,Level IV,11/05/2024,Unannounced,Full,6,0,6,8,0,8,18,0,18,18,0,18,44,124,0,59,15,12,0,15,9,0,9,,11,1,12,0,,IVY'S UNIQUE KIDS INC.,Kristin Blassingame,
203695,LAKOTA FAMILY YMCA AT HERITAGE,https://childcaresearch.ohio.gov//pdf/000000203695_2024-10-04_ANNUAL.pdf,5052 HAMILTON MASON RD,HAMILTON,45011,7:00 AM,,8:11 AM,,Exempt,10/04/2024,Unannounced,Full,0,0,0,0,0,0,0,0,0,0,23,23,0,54,23,23,0,0,0,0,0,0,0,,1,0,1,0,,Lakota Family YMCA at Heritage,Steffani Roberts,NA
204064,WEE-HAVEN CHILDREN'S CENTER INC,https://childcaresearch.ohio.gov//pdf/000000204064_2024-10-23_ANNUAL.pdf,2201 W SCHANTZ AVE,KETTERING,45409,10:15 AM,,12:30 PM,06/25/2024,Level III,10/23/2024,Unannounced,Full,0,0,0,3,0,3,20,0,20,0,16,16,23,124,16,44,5,5,0,5,5,0,5,,6,0,5,0,,WEE-HAVEN CHILDREN'S CENTER INC,BRENDA MEYER,E
204337,GMV YMCA @ HIGHLAND ELEMENTARY,https://childcaresearch.ohio.gov//pdf/000000204337_2024-09-10_ANNUAL.pdf,1125 MAIN STREET,HAMILTON,45013,8:00 AM,,9:00 AM,,Exempt,09/10/2024,Unannounced,Full,0,0,0,0,0,0,0,23,23,0,0,0,0,72,23,23,0,0,0,0,0,0,0,,4,0,4,0,,"☑FITTON FAMILY YMCA SCHOOL AGE 
HIGHLAND ELEMENTARY",Kathryn Koester,School Building
204837,COUNTRY HILLS EAST MONTESSORI LTD,https://childcaresearch.ohio.gov//pdf/000000204837_2023-12-12_ANNUAL.pdf,4400 GLEN ESTE-WITHAMSVILLE RD,CINCINNATI,45245,9:50 AM,,10:45 AM,02/22/2023,,12/12/2023,Unannounced,Full,0,0,0,0,0,0,24,0,24,0,0,0,24,38,0,24,0,0,0,0,0,0,0,,0,0,0,0,,COUNTRY HILLS EAST MONTESSORI LTD,SULYN ROMER,
204960,WINNIE THE POOH CHILDREN'S CENTER,https://childcaresearch.ohio.gov//pdf/000000204960_2024-01-09_ANNUAL.pdf,3962 BRITTON BOULEVARD,CINCINNATI,45245,9:45 AM,01/05/1999,5:40 PM,04/04/2019,Level II,01/09/2024,Unannounced,Full,10,0,10,6,0,6,30,12,42,15,9,24,51,212,21,89,17,67,0,17,7,0,7,,11,1,9,0,,Winnie the Pooh Children's Center,ZIBUTE OSGOOD,E with 1-2
205547,A CHILD'S GARDEN,https://childcaresearch.ohio.gov//pdf/000000205547_2024-12-18_ANNUAL.pdf,5427 JULMAR DRIVE,CINCINNATI,45238,8:55 AM,10/12/2001,2:10 PM,09/06/2024,Level II,12/18/2024,Unannounced,Full,0,0,0,0,4,4,19,127,146,2,5,7,21,160,136,157,0,5,0,0,0,0,0,,9,2,9,0,,A CHILD'S GARDEN,Ashley Chiles,E
205682,RAINBOW YEARS CHILD CARE,https://childcaresearch.ohio.gov//pdf/000000205682_2024-07-23_ANNUAL.pdf,2727 S SMITHVILLE ROAD,DAYTON,45420,8:30 AM,03/04/2002,12:27 PM,10/31/2023,Level III,07/23/2024,Unannounced,Full,0,0,0,6,0,6,40,0,40,84,0,84,130,143,0,135,5,5,0,5,5,0,5,5,5,1,5,0,5,RAINBOW YEARS CHILD CARE,Steffani Roberts,E
205904,KINDERCARE LEARNING CENTER #124,https://childcaresearch.ohio.gov//pdf/000000205904_2024-07-08_ANNUAL.pdf,1111 E STROOP ROAD,KETTERING,45429,9:30 AM,,1:13 PM,10/20/2023,Level III,07/08/2024,Unannounced,Full,11,0,11,10,0,10,37,0,37,31,0,31,78,112,0,94,16,24,0,16,5,0,5,,6,1,6,0,,KINDERCARE LEARNING CENTER #124,BRENDA MEYER,
206065,GREENBUSH HEAD START CENTER,https://childcaresearch.ohio.gov//pdf/000000206065_2024-10-30_ANNUAL.pdf,16003 STATE ROUTE 68,MT ORAB,45154,12:00 PM,,2:00 PM,12/11/2023,,10/30/2024,Unannounced,Full,0,0,0,0,0,0,15,0,15,0,0,0,15,25,0,15,0,0,0,0,0,0,0,,8,0,7,0,,GREENBUSH HEAD START CENTER,SULYN ROMER,
206284,KCE CHAMPIONS LLC @ LOVELAND,https://childcaresearch.ohio.gov//pdf/000000206284_2024-10-03_ANNUAL.pdf,550 LOVELAND-MADEIRA ROAD,LOVELAND,45140,2:55 PM,,5:45 PM,,Level II,10/03/2024,Unannounced,Full,0,0,0,0,0,0,0,0,0,0,125,125,0,102,125,125,0,0,0,0,0,0,0,,2,0,2,0,,KCE Champions LLC @ Loveland,PAMELA DAUDISTEL,
206527,YMCA SCHOOLAGE ENRICHMENT PROGRAM AT MEDLAR VIEW,https://childcaresearch.ohio.gov//pdf/000000206527_2024-10-10_ANNUAL.pdf,4400 MEDLAR RD,MIAMISBURG,45342,7:00 AM,03/20/2000,8:15 AM,07/28/2023,Level III,10/07/2024,Unannounced,Full,0,0,0,0,0,0,0,10,10,0,17,17,0,72,27,27,0,0,0,0,0,0,0,,1,2,3,0,,"YMCA SCHOOLAGE ENRICHMENT
PROGRAM AT MEDLAR VIEW",Carlie Bennett,E
206528,YMCA SCHOOL AGE ENRICHMENT PROGRAM AT BAUER,https://childcaresearch.ohio.gov//pdf/000000206528_2024-10-28_ANNUAL.pdf,6951 SPRINGBORO PK,DAYTON,45449,7:10 AM,,8:50 AM,,Exempt,10/28/2024,Unannounced,Full,0,0,0,0,0,0,0,0,0,0,30,30,0,31,30,30,0,0,0,0,0,0,0,,7,2,8,0,,"YMCA SCHOOL AGE ENRICHMENT
PROGRAM AT BAUER",Carlie Bennett,School Building
206534,GMV YMCA @ KRAMER ELEMENTARY,https://childcaresearch.ohio.gov//pdf/000000206534_2024-02-27_ANNUAL.pdf,400 W. SYCAMORE STREET,OXFORD,45056,3:30 PM,,5:15 PM,,Level III,02/27/2024,Unannounced,Full,0,0,0,0,0,0,0,0,0,0,20,20,0,36,20,20,0,0,0,0,0,0,0,,9,0,8,0,,"FITTON FAMILY YMCA SCHOOL AGE AT
KRAMER ELEMENTARY",PAMELA DAUDISTEL,School Building
206750,TREE HOUSE CHILDCARE,https://childcaresearch.ohio.gov//pdf/000000206750_2024-10-09_ANNUAL.pdf,5910 COLERAIN AVENUE,CINCINNATI,45239,,,,,,,,,,,,,,,,,,,,,,,,,,,,,,,,,,,,,,,,
207513,"HICKORY DICKORY TOTS, LLC",https://childcaresearch.ohio.gov//pdf/000000207513_2024-10-29_ANNUAL.pdf,9057 CINCINNATI-COLUMBUS RD,WEST CHESTER,45069,9:00 AM,09/24/2009,3:01 PM,07/30/2024,Level III,10/29/2024,Unannounced,Full,22,0,22,22,0,22,60,0,60,0,37,37,82,274,37,156,37,56,0,37,15,0,15,,4,0,4,0,289,"HICKORY DICKORY TOTS, LLC",Steffani Roberts,E
207706,NEXT GENERATION CHILDCARE AND LEARNING CENTER,https://childcaresearch.ohio.gov//pdf/000000207706_2023-08-01_ANNUAL.pdf,2780 BANNING ROAD,CINCINNATI,45239,7:00 AM,,8:50 AM,03/27/2023,Level III,08/01/2023,Unannounced,Full,12,0,12,5,0,5,14,0,14,12,0,12,31,62,0,50,19,33,0,19,7,0,7,,3,0,3,0,,"NEXT GENERATION CHILDCARE AND
LEARNING CENTER",Kristin Blassingame,
207714,LITTLE VILLAGE KIDS,https://childcaresearch.ohio.gov//pdf/000000207714_2024-10-22_ANNUAL.pdf,"935 DEIS DR, STE B",FAIRFIELD,45014,10:15 AM,,12:45 PM,09/19/2024,Level III,10/22/2024,Unannounced,Full,6,0,6,7,0,7,17,0,17,0,17,17,24,128,17,54,13,53,0,13,7,0,7,144,5,0,5,0,,LITTLE VILLAGE KIDS,BRENDA MEYER,
207738,TIME FOR KIDS,https://childcaresearch.ohio.gov//pdf/000000207738_2024-10-24_ANNUAL.pdf,7247 ZOAR RD,MAINEVILLE,45039,2:30 PM,,3:30 PM,07/25/2023,Exempt,10/24/2024,Unannounced,Full,0,0,0,0,0,0,0,0,0,100,0,100,100,90,0,100,0,0,0,0,0,0,0,,3,1,4,0,,Time For Kids,Nicole Vadnais,
2170012482,A CHILD'S JOURNEY LEARNING CENTER,https://childcaresearch.ohio.gov//pdf/002170012482_2024-08-09_ANNUAL.pdf,846 S. YEARLING RD,WHITEHALL,43213,9:35 AM,,1:10 PM,03/07/2024,,08/09/2024,Unannounced,Full,6,0,6,0,0,0,12,0,12,6,0,6,18,33,0,29,11,23,0,11,5,0,5,,7,1,7,0,,A CHILD'S JOURNEY LEARNING CENTER,STEPHANIE WALTERS,
2170012486,LET'S PLAY SCHOOL EARLY LEARNING AND DEVELOPMENT CEN,https://childcaresearch.ohio.gov//pdf/002170012486_2024-02-26_ANNUAL.pdf,3445 E MANHATTAN,TOLEDO,43611,4:30 PM,,8:00 PM,09/29/2023,,02/26/2024,Unannounced,Full,0,0,0,0,0,0,2,0,2,7,0,7,9,62,0,9,0,52,0,0,0,0,0,,4,0,4,0,,"LET'S PLAY SCHOOL EARLY LEARNING AND
DEVELOPMENT CEN",Maribeth Tercha,
2170012592,YOUTHLAND ACADEMY OF BEEKMAN,https://childcaresearch.ohio.gov//pdf/002170012592_2024-12-27_ANNUAL.pdf,3277 BEEKMAN,CINCINNATI,45225,8:30 AM,04/03/2019,9:00 AM,04/02/2019,Level IV,10/01/2024,Unannounced,Full,0,0,0,0,0,0,0,0,0,0,58,58,0,74,58,58,0,0,0,0,0,0,0,29,10,2,12,0,100,"Right At School at Fairbrook Elementary
School",BRENDA MEYER,E
2170014418,RAINBOW EARLY LEARNING CENTER,https://childcaresearch.ohio.gov//pdf/002170014418_2024-07-18_ANNUAL.pdf,350 THREE RIVERS PARKWAY,NORTHBEND,45052,9:30 AM,12/02/2020,12:40 PM,10/30/2024,Level II,12/12/2024,Unannounced,Full,6,0,6,1,0,1,12,0,12,13,0,13,26,49,0,38,12,18,0,12,6,0,6,5,15,0,11,0,30,Lucky Academy LTD,Jada Hightower,E
2170014452,KAMPUSLAND INC.,https://childcaresearch.ohio.gov//pdf/002170014452_2023-08-04_ANNUAL.pdf,750 DERBY AVE,CINCINNATI,45232,9:00 AM,05/25/2022,1:00 PM,07/23/2024,Level II,11/25/2024,Unannounced,Full,7,0,7,5,0,5,26,0,26,0,38,38,31,100,38,88,19,24,0,19,12,0,12,5,17,4,17,0,200,Precious Jewels Learning Academy,Akeea Nelson,E
2170014522,AGAPE ACADEMY,https://childcaresearch.ohio.gov//pdf/002170014522_2024-12-13_ANNUAL.pdf,4519 CEMETERY RD,HILLIARD,43026,12:37 PM,10/18/2022,2:53 PM,09/12/2023,Exempt,02/22/2024,Unannounced,Full,0,0,0,0,0,0,25,15,40,0,0,0,25,28,15,40,0,0,0,0,0,0,0,0,6,1,5,0,31,"Kids in the Ridge Early Learning Program
LLC",REBECCA KOTEWICZ,E
2170014793,APPLES OF GOLD ENRICHMENT CENTER,https://childcaresearch.ohio.gov//pdf/002170014793_2024-03-26_ANNUAL.pdf,4215 BLUESTONE,SOUTH EUCLID,44121,9:30 AM,,2:30 PM,03/03/2023,Level III,03/26/2024,Unannounced,Full,7,0,7,7,0,7,16,19,35,0,36,36,23,103,55,87,9,55,0,9,2,0,2,,5,0,5,0,,Apples Of Gold Enrichment Center,PATRICIA REMINGTON,
2170015182,PEEK A BOO LEARNING ACADEMY,https://childcaresearch.ohio.gov//pdf/002170015182_2023-08-17_ANNUAL.pdf,762 WAYCROSS ROAD,CINCINNATI,45240,10:30 AM,07/10/2019,12:30 PM,08/07/2023,Level III,08/17/2023,Unannounced,Full,8,0,8,3,0,3,8,0,8,0,0,0,11,66,0,23,12,42,0,12,4,0,4,42,1,3,4,0,66,PEEK-A-BOO LEARNING ACADEMY,Yolonda McIntosh,E
2170015350,KIDDIE ACADEMY OF HILLIARD,https://childcaresearch.ohio.gov//pdf/002170015350_2024-07-26_ANNUAL.pdf,2525 ROBERTS COURT,HILLIARD,43026,8:00 AM,08/07/2017,10:30 AM,09/30/2023,Level III,07/26/2024,Unannounced,Full,9,0,9,6,0,6,23,0,23,7,0,7,36,132,0,50,14,63,0,14,5,0,5,,1,0,1,0,,Kiddie Academy of Hilliard,Sara Goke,E
2170015375,ZION CHRISTIAN EARLY LEARNING CENTER BEFORE AND AFTER CARE,https://childcaresearch.ohio.gov//pdf/002170015375_2024-11-05_ANNUAL.pdf,400 HILLTOP BLVD,CANFIELD,44406,7:00 AM,,8:00 AM,,Exempt,11/05/2024,Unannounced,Full,0,0,0,0,0,0,0,0,0,0,33,33,0,207,33,33,0,0,0,0,0,0,0,0,0,0,0,0,207,"Zion Christian Early Learning Center Before
and After Care",JENNIFER COPE,School Building
2170015375,ZION CHRISTIAN EARLY LEARNING CENTER BEFORE AND AFTER CARE,https://childcaresearch.ohio.gov//pdf/002170015375_2024-11-05_ANNUAL.pdf,400 HILLTOP BLVD,CANFIELD,44406,7:00 AM,,8:00 AM,,Exempt,11/05/2024,Unannounced,Full,0,0,0,0,0,0,0,0,0,0,33,33,0,207,33,33,0,0,0,0,0,0,0,0,0,0,0,0,207,"Zion Christian Early Learning Center Before
and After Care",JENNIFER COPE,School Building
2170015810,KIND AND CARING LEARNING CENTER,https://childcaresearch.ohio.gov//pdf/002170015810_2024-11-01_ANNUAL.pdf,37 ESWIN STREET,CINCINNATI,45218,10:30 AM,10/02/2017,2:07 PM,02/20/2024,Level III,11/01/2024,Unannounced,Full,6,0,6,0,0,0,10,0,10,2,0,2,12,46,0,22,10,19,0,10,4,0,4,18,14,1,14,0,31,Kind And Caring Learning Center,ZIBUTE OSGOOD,E with 1-2
2170016184,INTELLIGENT MINDS CHILDCARE CENTER,https://childcaresearch.ohio.gov//pdf/002170016184_2025-01-22_ANNUAL.pdf,1032 JACKSON STREET,CINCINNATI,45215,9:00 AM,,10:30 AM,07/29/2024,Level IV,01/22/2025,Unannounced,Full,4,0,4,0,0,0,10,0,10,6,0,6,16,25,0,22,6,8,0,6,2,0,2,,3,1,3,0,,Intelligent Minds Childcare Center,Nicole Vadnais,
2170016535,LITTLE BLESSINGS CHILDCARE LEARNING CENTER LLC,https://childcaresearch.ohio.gov//pdf/002170016535_2024-09-23_ANNUAL.pdf,1849 OTTAWA DRIVE,TOLEDO,43606,9:30 AM,,11:15 AM,07/30/2024,,09/23/2024,Unannounced,Full,1,0,1,2,0,2,5,0,5,0,9,9,7,36,9,17,1,9,0,1,0,0,0,,14,3,13,0,,"Little Blessings ChildCare learning center
LLC",Heather Sanchez,
2180016702,ALLY CHILD CARE,https://childcaresearch.ohio.gov//pdf/002180016702_2024-08-07_ANNUAL.pdf,7016 CORPORATE WAY,DAYTON,45459,10:15 AM,,12:00 PM,11/07/2023,Exempt,08/07/2024,Unannounced,Full,12,0,12,9,0,9,22,0,22,0,0,0,31,79,0,52,21,41,0,21,9,0,9,,2,1,3,0,,Ally Child Care,BRENDA MEYER,
2180017848,"OHIO LEARNING ACADEMY, INC",https://childcaresearch.ohio.gov//pdf/002180017848_2024-11-01_ANNUAL.pdf,5475 SANDALWOOD BLVD.,COLUMBUS,43229,3:45 PM,01/09/2012,5:00 PM,04/16/2018,Level III,11/26/2024,Unannounced,Full,10,0,10,5,0,5,17,0,17,0,36,36,22,102,36,78,20,70,0,20,10,0,10,62,11,0,9,0,154,"Ohio Learning Academy, INC",JO ELLEN MORTON-CONRAD,E
2180018063,LEARNING CLUBHOUSE LLC,https://childcaresearch.ohio.gov//pdf/002180018063_2024-09-18_ANNUAL.pdf,2365 COMPTON ROAD,CINCINNATI,45231,10:30 AM,07/17/2019,5:15 PM,05/24/2024,Level III,09/18/2024,Unannounced,Full,6,0,6,3,0,3,8,0,8,0,0,0,11,45,0,20,9,24,0,9,3,0,3,24,24,0,15,0,48,Learning Clubhouse LLC,ZIBUTE OSGOOD,E with 1-2
2180018482,THE NEST SCHOOLS STATE,https://childcaresearch.ohio.gov//pdf/002180018482_2024-11-05_ANNUAL.pdf,600 N. STATE ST.,WESTERVILLE,43082,9:05 AM,,1:45 PM,10/31/2024,Level III,11/05/2024,Unannounced,Full,19,0,19,9,0,9,31,0,31,10,0,10,50,186,0,77,27,103,0,27,8,0,8,,14,1,13,0,,The Nest Schools State,Bradie McAfee,
2190019643,JONAH'S CREATIVE CENTER LLC,https://childcaresearch.ohio.gov//pdf/002190019643_2024-07-24_ANNUAL.pdf,7819 WEST CHESTER ROAD,CINCINNATI,45069,10:00 AM,,11:45 AM,07/02/2024,Level III,07/24/2024,Unannounced,Full,4,0,4,7,0,7,14,0,14,18,0,18,39,163,0,50,11,46,0,11,7,0,7,,4,2,6,0,,Jonah's Creative Center LLC,BRENDA MEYER,
2190019909,WEE CARE DAY CARE AND LEARNING CENTRE,https://childcaresearch.ohio.gov//pdf/002190019909_2024-08-15_ANNUAL.pdf,1101 FORD AVE,YOUNGSTOWN,44504,10:10 AM,05/30/2008,3:15 PM,01/29/2024,Level II,08/15/2024,Unannounced,Full,12,0,12,2,0,2,31,0,31,22,0,22,55,81,0,72,17,29,0,17,5,0,5,29,8,0,7,0,81,Wee Care Day Care and Learning Centre,SARAH HEIL-HINTON,E
2190019951,PITTER PATTER LEARNING CENTER,https://childcaresearch.ohio.gov//pdf/002190019951_2024-10-22_ANNUAL.pdf,5500 NORTH DIXIE DRIVE,DAYTON,45414,9:00 AM,04/03/2019,12:30 PM,04/02/2019,Level III,10/22/2024,Unannounced,Full,5,0,5,3,0,3,21,0,21,0,0,0,24,74,0,39,15,27,0,15,10,0,10,,8,0,7,0,100,Pitter Patter Learning Center,Kathryn Koester,E
2190020152,RIGHT AT SCHOOL AT FAIRBROOK ELEMENTARY SCHOOL,https://childcaresearch.ohio.gov//pdf/002190020152_2024-10-01_ANNUAL.pdf,260 N. FAIRFIELD ROAD,BEAVERCREEK,45430,8:30 AM,,9:00 AM,,Level IV,10/01/2024,Unannounced,Full,0,0,0,0,0,0,0,0,0,0,58,58,0,74,58,58,0,0,0,0,0,0,0,,10,2,12,0,,"Right At School at Fairbrook Elementary
School",BRENDA MEYER,
2190020169,LIL' RASCALS LEARNING ACADEMY,https://childcaresearch.ohio.gov//pdf/002190020169_2024-11-25_ANNUAL.pdf,2543 FRANKSWAY STREET,COLUMBUS,43232,3:55 PM,10/09/2015,5:45 PM,03/01/2024,Level III,11/25/2024,Unannounced,Full,0,0,0,0,0,0,0,0,0,25,0,25,25,41,0,25,0,0,0,0,0,0,0,,5,0,5,0,41,Lil' Rascals Learning Academy,Jada Hightower,
2190020846,COMPLETE CARE DEVELOPMENT CENTER LLC,https://childcaresearch.ohio.gov//pdf/002190020846_2024-09-25_ANNUAL.pdf,3557 SPRINGDALE RD,CINCINNATI,45251,9:45 AM,07/10/2013,5:14 PM,02/06/2024,Level III,09/25/2024,Unannounced,Full,4,0,4,3,0,3,12,0,12,10,0,10,25,46,0,31,6,28,0,6,2,0,2,,14,4,14,0,46,Complete Care Development Center LLC,ZIBUTE OSGOOD,E with 1-2
2190021104,LEARNING CENTER FOR LITTLE SCHOLARS LLC4640,https://childcaresearch.ohio.gov//pdf/002190021104_2025-01-22_ANNUAL.pdf,4640 RICHMOND ROAD   SUITE100,WARRENSVILLE,44128,9:45 AM,06/04/2020,11:40 AM,12/30/2024,Level III,01/22/2025,Unannounced,Full,9,0,9,3,0,3,27,28,55,0,0,0,30,84,28,76,18,25,0,18,9,0,9,,9,0,8,0,90,Learning Center For Little Scholars LLC4640,Brittani Aloi,E
2200021241,H.HILLS LEARNING ACADEMY,https://childcaresearch.ohio.gov//pdf/002200021241_2024-12-31_ANNUAL.pdf,5881 CHANTRY DRIVE,COLUMBUS,43232,8:30 AM,,2:00 PM,01/11/2024,Level III,12/31/2024,Unannounced,Full,11,0,11,4,0,4,24,0,24,35,0,35,63,135,0,80,17,40,0,17,6,0,6,,30,2,21,0,,H.HILLS LEARNING ACADEMY,Lakesha Williams,E
2200021583,"TINY TECH UNIVERSITY, INC",https://childcaresearch.ohio.gov//pdf/002200021583_2024-12-05_ANNUAL.pdf,4400 SPENCERVILLE RD,LIMA,45805,10:45 AM,,1:30 PM,09/03/2024,,12/05/2024,Unannounced,Full,10,0,10,26,0,26,49,0,49,0,76,76,75,118,76,169,18,18,0,18,8,0,8,,3,0,3,0,,"Tiny Tech University, Inc",Heather Sanchez,
2200022105,"ROMERO ACADEMY AT RESURRECTION FAMILY SERVICES, LLC",https://childcaresearch.ohio.gov//pdf/002200022105_2024-11-13_ANNUAL.pdf,1750 FIRST AVENUE,CINCINNATI,45205,9:50 AM,08/13/2020,12:40 PM,09/01/2022,Level II,11/13/2024,Unannounced,Full,0,0,0,0,0,0,13,0,13,0,0,0,13,24,0,13,0,0,0,0,0,0,0,2½,1,2,3,0,,"Romero Academy at Resurrection Family
Services, LLC",PAMELA DAUDISTEL,E
2200022359,NURTURING EXCELLENCE CHILD ENRICHMENT CENTER LLC.,https://childcaresearch.ohio.gov//pdf/002200022359_2025-01-13_ANNUAL.pdf,1008 EAST 152ND STREET SUITE B,CLEVELAND,44110,9:15 AM,10/05/2023,12:00 PM,10/10/2023,Level III,01/13/2025,Unannounced,Full,4,0,4,5,0,5,9,0,9,0,9,9,14,53,9,29,6,20,0,6,2,0,2,20,17,3,17,0,77,"Nurturing Excellence Child Enrichment
Center LLC.",Brittani Aloi,E
2200022506,EARLY LEARNING AND FINE ARTS CHILD CARE CENTER,https://childcaresearch.ohio.gov//pdf/002200022506_2024-08-06_ANNUAL.pdf,4021 HARRISON AVE,CINCINATI,45211,9:50 AM,12/02/2020,4:10 PM,02/01/2022,Exempt,08/06/2024,Unannounced,Full,0,0,0,1,0,1,6,0,6,7,0,7,14,30,0,14,0,5,0,0,0,0,0,5,13,1,12,0,30,"Early Learning and Fine Arts Child Care
Center",ZIBUTE OSGOOD,E
2200022564,PEACOX CHILD CARE II,https://childcaresearch.ohio.gov//pdf/002200022564_2024-11-20_ANNUAL.pdf,900 BEECHWOOD ROAD,COLUMBUS,43227,8:30 AM,,10:52 AM,10/08/2024,Level IV,11/20/2024,Unannounced,Full,14,0,14,4,0,4,23,0,23,0,40,40,27,86,40,93,26,36,0,26,12,0,12,,5,1,4,0,,Peacox Child Care II,AMY HILLARD,E
2200022632,LUCKY ACADEMY LTD,https://childcaresearch.ohio.gov//pdf/002200022632_2024-12-12_ANNUAL.pdf,79 NORTH WILSON RD,COLUMBUS,43204,9:30 AM,,12:40 PM,10/30/2024,Level II,12/12/2024,Unannounced,Full,6,0,6,1,0,1,12,0,12,13,0,13,26,49,0,38,12,18,0,12,6,0,6,,15,0,11,0,,Lucky Academy LTD,Jada Hightower,
2200023127,NIGHTINGALE MONTESSORI NORTH CAMPUS,https://childcaresearch.ohio.gov//pdf/002200023127_2024-10-03_ANNUAL.pdf,2525 NORTH LIMESTONE ST,SPRINGFIELD,45503,8:20 AM,02/26/2020,2:21 PM,08/24/2020,Level IV,10/03/2024,Unannounced,Full,2,0,2,4,0,4,12,0,12,13,0,13,29,64,0,36,7,12,0,7,5,0,5,,11,1,11,0,49,Nightingale Montessori North Campus,Rebecca Worrell,E
2200023203,HELPING HANDS CHILDCARE AND WELLNESS CENTER II LLC,https://childcaresearch.ohio.gov//pdf/002200023203_2025-01-16_ANNUAL.pdf,449 MIDWAY BLVD,ELYRIA,44035,7:00 AM,,1:15 PM,12/12/2024,,01/16/2025,Unannounced,Full,11,0,11,8,0,8,24,0,24,0,20,20,32,72,20,72,20,26,0,20,9,0,9,,3,2,4,0,,"Helping Hands Childcare and Wellness
Center II IIc",ELAINE OBRIEN,
2200023403,PRIMROSE SCHOOL OF STRONGSVILLE,https://childcaresearch.ohio.gov//pdf/002200023403_2024-07-18_ANNUAL.pdf,18713 PEARL RD.,STRONGSVILLE,44136,9:50 AM,01/25/2021,2:00 PM,01/23/2024,Level III,07/18/2024,Unannounced,Full,15,0,15,11,0,11,44,0,44,33,0,33,88,227,0,126,38,88,0,38,23,0,23,,7,0,6,0,237,Primrose School of Strongsville,Erica Adams,E
2210024174,"TRI-VILLAGE CHRISTIAN ACADEMY, LLC",https://childcaresearch.ohio.gov//pdf/002210024174_2024-10-29_ANNUAL.pdf,7509 E BROAD ST SW,PATASKALA,43062,9:05 AM,02/04/2021,11:40 AM,05/02/2024,Exempt,10/29/2024,Unannounced,Full,0,0,0,0,11,11,43,39,82,5,0,5,48,104,50,101,0,5,3,3,0,3,3,5,3,0,2,0,,"Tri-Village Christian Academy, LLC",LISA NUTTER,E
2210024216,TIMBER TOPS DAYHOME,https://childcaresearch.ohio.gov//pdf/002210024216_2024-11-18_ANNUAL.pdf,74 S. PLAINS ROAD,THE PLAINS,45780,10:35 AM,11/27/2023,1:00 PM,11/29/2023,Exempt,11/18/2024,Unannounced,Full,10,0,10,9,0,9,21,0,21,0,0,0,30,51,0,45,15,49,0,15,5,0,5,,7,0,6,0,,Timber Tops Dayhome,Barbara Smith,E
2210024850,"MY LITTLE WORLD ACADEMY, LLC",https://childcaresearch.ohio.gov//pdf/002210024850_2024-12-16_ANNUAL.pdf,1405 MOLER RD,COLUMBUS,43207,9:10 AM,07/07/2021,11:40 AM,07/01/2024,Level III,12/16/2024,Unannounced,Full,7,0,7,2,0,2,12,0,12,0,4,4,14,91,4,32,14,83,0,14,7,0,7,,1,0,1,0,,"My Little World Academy, LLC",HEATHER STILLION,E
2210025000,MAANDEEQ CHILDCARE LEARNING CENTER LLC,https://childcaresearch.ohio.gov//pdf/002210025000_2024-07-15_ANNUAL.pdf,1997 E. DUBLIN GRANVILLE ROAD,COLUMBUS,43229,1:38 PM,,2:27 PM,10/01/2023,,07/16/2024,Unannounced,Full,3,0,3,,,,,,,,,,,,,,,,,,6,0,6,,5,0,4,0,,Maandeeq Childcare Learning Center LLC,HEATHER WARES,
2210025351,WRIBBENHALL CHILD DEVELOPMENT CENTER,https://childcaresearch.ohio.gov//pdf/002210025351_2024-12-04_ANNUAL.pdf,1235 BROAD BLVD.,CUYAHOGA FALLS,44223,10:00 AM,01/12/2022,5:00 PM,02/01/2024,Exempt,12/04/2024,Unannounced,Full,11,0,11,6,0,6,45,0,45,0,0,0,51,171,0,68,17,52,0,17,6,0,6,,8,2,8,0,200,Wribbenhall Child Development Center,TONYA WASHINGTON,E
2220025965,YMCA CHILD CARE AT TOTH,https://childcaresearch.ohio.gov//pdf/002220025965_2024-10-22_ANNUAL.pdf,200 EAST SEVENTH ST.,PERRYSBURG,43551,7:00 AM,,8:37 AM,,,10/22/2024,Unannounced,Full,0,0,0,0,0,0,0,0,0,0,27,27,0,54,27,27,0,0,0,0,0,0,0,,2,0,4,0,,YMCA Child Care at Toth,ELLEN WOODRUFF,
2220026213,PRECIOUS JEWELS LEARNING ACADEMY,https://childcaresearch.ohio.gov//pdf/002220026213_2024-11-25_ANNUAL.pdf,14610 HARVARD AVE,CLEVELAND,44128,9:00 AM,05/25/2022,1:00 PM,07/23/2024,Level II,11/25/2024,Unannounced,Full,7,0,7,5,0,5,26,0,26,0,38,38,31,100,38,88,19,24,0,19,12,0,12,,17,4,17,0,,Precious Jewels Learning Academy,Akeea Nelson,
2220026264,HILL CHILDCARE AND FAMILY CENTER II,https://childcaresearch.ohio.gov//pdf/002220026264_2025-01-15_ANNUAL.pdf,2494 SUNNY HILL DRIVE,CINCINNATI,45225,,,,,,,,,,,,,,,,,,,,,,,,,,,,,,,,,,,,,,,,
2220026364,KINDERCARE LEARNING CENTERS LLC-TAYLOR WOODS,https://childcaresearch.ohio.gov//pdf/002220026364_2024-11-21_ANNUAL.pdf,8315 TAYLOR RD. SW,REYNOLDSBURG,43086,2:00 PM,,3:30 PM,04/25/2024,,11/22/2024,Unannounced,Full,,,,,,,,,,,,,,,,,,,,,,,,,23,2,19,1,,"KinderCare Learning Centers LLC-Taylor
Woods",HEATHER WARES,
2220026422,DISCOVERY POINT EARLY LEARNING CENTER,https://childcaresearch.ohio.gov//pdf/002220026422_2024-11-19_ANNUAL.pdf,4698 ROCKY RIVER DRIVE,CLEVELAND,44135,7:45 AM,,11:45 AM,09/03/2024,Level III,11/19/2024,Unannounced,Full,6,0,6,2,0,2,13,0,13,0,13,13,15,85,13,42,14,26,0,14,8,0,8,,9,2,10,0,,Discovery Point Early Learning Center,Margaret Agoston,
2220026441,YWCA KIDS PLACE AT MINERVA FRANCE,https://childcaresearch.ohio.gov//pdf/002220026441_2024-10-15_ANNUAL.pdf,4990 FARVIEW DR.,COLUMBUS,43231,3:15 PM,,5:37 PM,,Level I,10/15/2024,Unannounced,Full,0,0,0,0,0,0,0,0,0,0,22,22,0,72,22,22,0,0,0,0,0,0,0,,5,0,4,0,,YWCA Kids Place at Minerva France,Sarena Powhida,
2220026601,LITTLE LOVES CHILD CARE,https://childcaresearch.ohio.gov//pdf/002220026601_2024-07-24_ANNUAL.pdf,6142 COLERAIN AVE,CINCINNATI,45239,8:30 AM,,11:45 AM,09/07/2023,Level III,07/24/2024,Unannounced,Full,0,0,0,3,0,3,6,0,6,2,0,2,11,15,0,11,0,5,0,0,0,0,0,,13,0,12,0,,Little loves child care,Beverly McGlasson,E
2220026614,RIGHT AT SCHOOL AT BIG CREEK ELEMENTARY,https://childcaresearch.ohio.gov//pdf/002220026614_2024-11-07_ANNUAL.pdf,7247 BIG CREEK PARKWAY,MIDDLEBURG HEIGHTS,44130,3:25 PM,,4:50 PM,,Level III,11/07/2024,Unannounced,Full,0,0,0,0,0,0,0,48,48,0,0,0,0,36,48,48,0,0,0,0,0,0,0,,2,1,3,0,,Right At School at Big Creek Elementary,Kathryn Noftz,School Building
2220026616,RIGHT AT SCHOOL AT GRINDSTONE ELEMENTARY,https://childcaresearch.ohio.gov//pdf/002220026616_2024-10-21_ANNUAL.pdf,191 RACE ST.,BEREA,44017,3:30 PM,,4:55 PM,,Level III,10/21/2024,Unannounced,Full,0,0,0,0,0,0,0,0,0,0,25,25,0,121,25,25,0,0,0,0,0,0,0,,0,0,0,0,,Right At School at Grindstone Elementary,PATRICIA REMINGTON,
2220026704,BALANCED FAMILY ACADEMY OF CLINTONVILLE (25 E CALIFORNIA),https://childcaresearch.ohio.gov//pdf/002220026704_2024-09-16_ANNUAL.pdf,25 EAST CALIFORNIA AVE,COLUMBUS,43202,9:30 AM,,1:30 PM,10/04/2023,Level II,09/16/2024,Unannounced,Full,23,6,29,0,0,0,0,0,0,0,0,0,,,,,47,63,15,62,24,9,33,,7,0,5,0,,"Balanced Family Academy of Clintonville
(25 E California)",Alisha Goddard,
2220026916,RIVERSIDE AFTERSCHOOL 21ST CENTURY PROGRAM,https://childcaresearch.ohio.gov//pdf/002220026916_2023-11-14_ANNUAL.pdf,500 CHICAGO ST,TOLEDO,43611,4:15 PM,,5:15 PM,,,11/14/2023,Unannounced,Full,0,0,0,0,0,0,0,0,0,0,28,28,0,85,28,28,0,0,0,0,0,0,0,,3,1,4,0,,Riverside Afterschool 21st Century Program,KAROLINE OBERHAUS,
2220027046,BUILDING STRONG MINDS CHILDCARE,https://childcaresearch.ohio.gov//pdf/002220027046_2024-12-03_ANNUAL.pdf,3666 E. 116TH STREET,CLEVELAND,44105,8:30 AM,12/28/2022,10:15 AM,01/27/2023,Level III,12/03/2024,Unannounced,Full,0,0,0,1,0,1,9,0,9,0,14,14,10,85,14,27,3,64,0,3,3,0,3,38,5,2,7,0,100,BUILDING STRONG MINDS ChildCare,Akeea Nelson,
2220027110,KIDS IN THE RIDGE EARLY LEARNING PROGRAM LLC,https://childcaresearch.ohio.gov//pdf/002220027110_2024-02-22_ANNUAL.pdf,3781 MAIN ST.,MINERAL RIDGE,44440,12:37 PM,10/18/2022,2:53 PM,09/12/2023,Exempt,02/22/2024,Unannounced,Full,0,0,0,0,0,0,25,15,40,0,0,0,25,28,15,40,0,0,0,0,0,0,0,0,6,1,5,0,31,"Kids in the Ridge Early Learning Program
LLC",REBECCA KOTEWICZ,E
2220027237,LAUGH N LEARN BABIES LLC,https://childcaresearch.ohio.gov//pdf/002220027237_2025-01-28_ANNUAL.pdf,1485 E. LIVINGSTON AVE,COLUMBUS,43205,10:40 AM,11/27/2023,12:35 PM,10/01/2024,Level III,01/28/2025,Unannounced,Full,0,0,0,0,0,0,10,0,10,0,4,4,10,25,4,14,0,25,0,0,0,0,0,,8,0,6,0,,Laugh N Learn Babies LLC,HEATHER STILLION,E
2220027340,ICARE CONNECT EDUCATIONAL ACADEMY,https://childcaresearch.ohio.gov//pdf/002220027340_2024-07-24_ANNUAL.pdf,468 RICHMOND ROAD,RICHMOND HEIGHTS,44143,9:20 AM,02/01/2024,4:40 PM,07/25/2024,Level III,10/17/2024,Unannounced,Full,14,0,14,2,0,2,33,0,33,0,32,32,35,114,32,92,24,28,1,25,10,1,11,2½,17,3,18,0,111,CHILDTIME CHILDREN'S CENTER,Kathryn Noftz,E
2230027457,KCE CHAMPIONS LLC @ ST. MARGARET OF YORK,https://childcaresearch.ohio.gov//pdf/002230027457_2024-09-09_ANNUAL.pdf,9495 COLUMBIA ROAD,LOVELAND,45140,7:00 AM,11/26/1991,8:00 AM,09/05/2024,Level III,11/13/2024,Unannounced,Full,0,0,0,0,0,0,0,0,0,0,87,87,0,70,87,87,0,0,0,0,0,0,0,0,0,0,0,0,110,"CARE AFTER SCHOOL - WORTHINGTON
ESTATES",Catherine Moerch,School Building
2230027494,OWLS ACRE MONTESSORI,https://childcaresearch.ohio.gov//pdf/002230027494_2024-07-25_ANNUAL.pdf,1458 TIKI LANE,LANCASTER,43130,11:40 AM,05/06/2016,7:02 PM,05/20/2023,Level III,01/31/2024,Unannounced,Full,34,0,34,32,0,32,90,0,90,7,0,7,25,60,15,52,72,180,0,72,38,0,38,93,8,1,6,0,226,"THE OHIO STATE UNIVERSITY CHILD CARE
PROGRAM",HEATHER WARES,E
2230027605,KIND KIDS LEARNING ACADEMY,https://childcaresearch.ohio.gov//pdf/002230027605_2024-08-13_ANNUAL.pdf,273 WOOSTER RD. N,BARBERTON,44203,9:45 AM,11/23/1998,1:30 PM,12/08/2023,Level II,11/26/2024,Unannounced,Full,14,0,14,3,0,3,45,30,75,2,134,136,50,198,164,244,30,28,0,30,16,0,16,94,13,2,10,0,123,GREENE STREET DAY CARE/PRESCHOOL,KEYAUNA BABER,E
2230027725,ORIGINS SCHOOL OF LEARNING,https://childcaresearch.ohio.gov//pdf/002230027725_2024-09-11_ANNUAL.pdf,10531 JEROME ROAD,PLAIN CITY,43064,8:20 AM,,11:00 AM,06/14/2023,Level II,09/11/2024,Unannounced,Full,0,0,0,0,0,0,25,12,37,4,9,13,29,79,21,50,0,0,0,0,0,0,0,,2,1,3,0,,Origins School of Learning,HEATHER STILLION,
2230028020,EMPOWERED EARLY LEARNING ACADEMY - CANTON,https://childcaresearch.ohio.gov//pdf/002230028020_2024-09-10_ANNUAL.pdf,1379 GARFIELD AVE SW,CANTON,44706,10:00 AM,08/03/2023,1:45 PM,05/13/2024,Level II,09/10/2024,Unannounced,Full,0,0,0,0,0,0,20,0,20,0,0,0,20,50,0,20,0,0,0,0,0,0,0,0,7,1,7,0,50,"Empowered Early Learning Academy -
Canton",SHAWN CRAWFORD,E
300415,WILLOUGHBY UNITED METHODIST PRESCHOOL,https://childcaresearch.ohio.gov//pdf/000000300415_2024-02-06_ANNUAL.pdf,15 PUBLIC SQUARE,WILLOUGHBY,44094,9:08 AM,08/13/2012,10:59 AM,06/07/2023,Exempt,02/06/2024,Unannounced,Full,0,0,0,0,0,0,42,0,42,0,0,0,42,79,0,42,0,0,0,0,0,0,0,,1,0,1,0,,"WILLOUGHBY UNITED METHODIST
PRESCHOOL",Sara Davis,BB 303 (pre 1970)
300428,GREATER ACHIEVEMENT CHILD ENRICHMENT CENTER,https://childcaresearch.ohio.gov//pdf/000000300428_2024-11-25_ANNUAL.pdf,14220 HARVARD AVE.,CLEVELAND,44128,10:45 AM,08/16/2013,4:00 PM,12/18/2023,Level III,11/25/2024,Unannounced,Full,5,0,5,5,0,5,16,0,16,0,24,24,21,65,24,61,16,19,0,16,11,0,11,,2,0,3,0,46,"GREATER ACHIEVEMENT CHILD
ENRICHMENT CENTER",CYNTHIA PAYNE,E
300622,HEART TO HEART ENRICHMENT CENTER,https://childcaresearch.ohio.gov//pdf/000000300622_2024-01-04_ANNUAL.pdf,3095 WEST 25TH ST.,CLEVELAND,44113,9:25 AM,06/04/2008,11:30 AM,01/17/2018,Level III,01/04/2024,Unannounced,Full,0,0,0,1,0,1,4,0,4,0,11,11,5,41,11,19,3,12,0,3,3,0,3,68,10,5,12,0,68,HEART TO HEART ENRICHMENT CENTER,MATTHEW PIGNATO,E
300656,LIL' SNEAKERS UNIVERSITY,https://childcaresearch.ohio.gov//pdf/000000300656_2024-01-08_ANNUAL.pdf,8282 YELLOWBRICK ROAD,MENTOR,44060,10:45 AM,05/09/1995,2:00 PM,05/25/2023,Level III,01/08/2024,Unannounced,Full,6,0,6,6,0,6,41,5,46,0,9,9,47,99,14,72,11,29,0,11,5,0,5,1-2,4,0,3,0,100,LIL' SNEAKERS UNIVERSITY,CYNTHIA PAYNE,1-2
300710,"KIDS IN THE RIDGE EARLY LEARNING PROGRAM, LLC",https://childcaresearch.ohio.gov//pdf/000000300710_2024-10-24_ANNUAL.pdf,1371 DEPOT ST.,MINERAL RIDGE,44440,10:00 AM,06/05/2015,11:52 AM,10/04/2024,Level IV,10/24/2024,Unannounced,Full,11,0,11,6,0,6,0,0,0,0,0,0,6,32,0,29,23,32,0,23,12,0,12,34,2,0,2,0,41,"KIDS IN THE RIDGE EARLY LEARNING
PROGRAM, LLC",REBECCA KOTEWICZ,E
300739,VILLA EARLY LEARNING CENTER,https://childcaresearch.ohio.gov//pdf/000000300739_2024-12-17_ANNUAL.pdf,5620 BROADWAY AVENUE,CLEVELAND,44127,9:30 AM,10/14/2004,1:00 PM,12/13/2024,Level II,12/17/2024,Unannounced,Full,0,0,0,0,0,0,37,0,37,0,0,0,37,40,0,37,0,0,0,0,0,0,0,0,5,1,5,0,98,VILLA EARLY LEARNING CENTER,REBECCA KOTEWICZ,E
300821,YMCA GRANT LEARNING AND ENRICHMENT CENTER,https://childcaresearch.ohio.gov//pdf/000000300821_2024-09-12_ANNUAL.pdf,1470 VICTORIA BLVD.,LAKEWOOD,44107,3:30 PM,,5:50 PM,08/08/2016,Exempt,09/12/2024,Unannounced,Full,0,0,0,0,0,0,0,0,0,0,88,88,0,128,88,88,0,0,0,0,0,0,0,,9,2,11,0,,"YMCA GRANT LEARNING AND
ENRICHMENT CENTER",Kathryn Noftz,
300908,HEAVEN'S LITTLE INSPIRATIONS,https://childcaresearch.ohio.gov//pdf/000000300908_2024-11-05_ANNUAL.pdf,3767 COMMUNITY COLLEGE AVE,CLEVELAND,44115,9:40 AM,12/26/2014,11:55 AM,08/19/2024,Level III,11/05/2024,Unannounced,Full,0,0,0,0,0,0,6,0,6,0,7,7,6,52,7,20,7,24,0,7,7,0,7,25,13,2,13,0,72,HEAVEN'S LITTLE INSPIRATIONS,MATTHEW PIGNATO,E
301637,KINDERCARE LEARNING CENTER #328,https://childcaresearch.ohio.gov//pdf/000000301637_2024-07-25_ANNUAL.pdf,6145 MEADOWBROOK DRIVE,MENTOR,44060,10:40 AM,12/11/2023,3:40 PM,03/01/2024,Level III,07/25/2024,Unannounced,Full,8,2,10,4,0,4,43,9,52,0,0,0,47,100,9,75,17,33,2,19,9,0,9,,12,3,12,0,132,KINDERCARE LEARNING CENTER #328,Kathryn Noftz,E
301735,RIVERFRONT YMCA PRESCHOOL AND SCHOOL AGE ENRICHMENT,https://childcaresearch.ohio.gov//pdf/000000301735_2024-07-02_ANNUAL.pdf,544 BROAD BOULEVARD,CUYAHOGA FALLS,44221,9:30 AM,09/13/1999,4:45 PM,07/19/2023,Exempt,07/02/2024,Unannounced,Full,0,0,0,0,0,0,0,0,0,196,0,196,196,164,0,196,0,0,0,0,0,0,0,E,8,1,9,0,397,"Riverfront YMCA Preschool and School Age
Enrichment",BETH RAGLE,E
303010,WILLOUGHBY MONTESSORI DAYSCHOOL INC,https://childcaresearch.ohio.gov//pdf/000000303010_2024-02-07_ANNUAL.pdf,5543 S O M CENTER RD,WILLOUGHBY,44094,9:32 AM,10/23/1991,12:48 PM,01/12/2017,Level III,02/07/2024,Unannounced,Full,4,0,4,4,0,4,31,0,31,0,0,0,35,192,0,47,12,40,0,12,8,0,8,,6,0,6,0,298,"WILLOUGHBY MONTESSORI DAYSCHOOL
INC",Sara Davis,E with 1-2
303584,THE NEST SCHOOLS STRONGSVILLE,https://childcaresearch.ohio.gov//pdf/000000303584_2024-08-07_ANNUAL.pdf,14780 PEARL RD,STRONGSVILLE,44136,10:45 AM,07/17/2002,2:45 PM,06/26/2023,Level III,08/07/2024,Unannounced,Full,17,0,17,7,0,7,18,0,18,31,0,31,56,237,0,82,26,86,0,26,9,0,9,2½,5,1,5,0,200,The Nest Schools Strongsville,LAKESHA ALLEN,E
303770,CHILDTIME CHILDREN'S CENTER,https://childcaresearch.ohio.gov//pdf/000000303770_2024-10-17_ANNUAL.pdf,270 BEST ST,BEDFORD,44146,9:20 AM,02/01/2024,4:40 PM,07/25/2024,Level III,10/17/2024,Unannounced,Full,14,0,14,2,0,2,33,0,33,0,32,32,35,114,32,92,24,28,1,25,10,1,11,,17,3,18,0,111,CHILDTIME CHILDREN'S CENTER,Kathryn Noftz,E
303910,CLEVELAND CHILD CARE INC (GILBERT),https://childcaresearch.ohio.gov//pdf/000000303910_2024-08-14_ANNUAL.pdf,3274 W 58TH ST,CLEVELAND,44102,9:45 AM,05/10/1994,12:01 PM,12/11/2023,Level III,08/14/2024,Unannounced,Full,12,0,12,7,0,7,12,0,12,16,0,16,35,107,0,52,17,42,0,17,5,0,5,,0,0,0,0,60,CLEVELAND CHILD CARE INC (GILBERT),REBECCA KOTEWICZ,E
304505,VALLEY CHRISTIAN PRESCHOOL,https://childcaresearch.ohio.gov//pdf/000000304505_2025-01-31_ANNUAL.pdf,87 E ORANGE ST,CHAGRIN FALLS,44022,10:15 AM,,12:45 PM,02/14/2018,,01/31/2025,Unannounced,Full,0,0,0,0,0,0,2,57,59,0,0,0,2,93,57,82,0,14,23,23,0,23,23,,0,0,0,0,,Valley Christian Preschool,CYNTHIA PAYNE,
305772,INTERGENERATIONAL DAY CARE,https://childcaresearch.ohio.gov//pdf/000000305772_2024-07-22_ANNUAL.pdf,620 EAST 185TH STREET,CLEVELAND,44119,9:02 AM,04/03/2023,11:37 AM,05/24/2024,Level IV,07/22/2024,Unannounced,Full,0,0,0,2,0,2,4,0,4,0,19,19,6,128,19,27,2,94,0,2,2,0,2,,12,0,11,0,143,INTERGENERATIONAL DAY CARE,Tamela Green,
305861,GOOD BEGINNINGS INC.,https://childcaresearch.ohio.gov//pdf/000000305861_2023-08-07_ANNUAL.pdf,5468 WARRENSVILLE CTR RD.,MAPLE,44137,11:00 AM,10/09/2017,1:54 PM,09/13/2022,Level III,08/07/2023,Unannounced,Full,14,0,14,17,0,17,82,0,82,0,0,0,99,199,0,118,19,83,0,19,5,0,5,,1,0,1,0,200,GOOD BEGINNINGS INC.,CYNTHIA PAYNE,E
306149,JERUSALEM LUTHERAN PRESCHOOL,https://childcaresearch.ohio.gov//pdf/000000306149_2025-01-15_ANNUAL.pdf,9282 ACME ROAD,SEVILLE,44273,10:00 AM,,12:30 PM,08/13/2024,,01/15/2025,Unannounced,Full,0,0,0,0,0,0,0,28,28,0,0,0,0,49,28,28,0,0,0,0,0,0,0,,1,0,1,0,,JERUSALEM LUTHERAN PRESCHOOL,DIANE TRACZYK,
306923,BETHESDA CHILDCARE CENTER,https://childcaresearch.ohio.gov//pdf/000000306923_2024-07-26_ANNUAL.pdf,28607 WOLF ROAD,BAY VILLAGE,44140,9:00 AM,07/28/2005,12:00 PM,03/30/2018,Level III,07/26/2024,Unannounced,Full,0,0,0,0,0,0,16,20,36,37,26,63,53,88,46,99,0,0,0,0,0,0,0,,9,1,10,0,,BETHESDA CHILDCARE CENTER,Akeea Nelson,E
306927,"KIDDIE KAMPUS CHILD ENRICHMENT CENTER, INC",https://childcaresearch.ohio.gov//pdf/000000306927_2023-12-19_ANNUAL.pdf,20 W. GRACE STREET,BEDFORD,44146,10:20 AM,08/01/2006,1:47 PM,01/03/2023,Level IV,12/19/2023,Unannounced,Full,7,0,7,0,0,0,12,0,12,0,18,18,12,164,18,42,12,40,0,12,5,0,5,,4,0,3,0,264,"KIDDIE KAMPUS CHILD ENRICHMENT
CENTER, INC",Tamela Green,E
308498,KINDERCARE OF AVON,https://childcaresearch.ohio.gov//pdf/000000308498_2025-01-22_ANNUAL.pdf,35680 DETROIT RD,AVON,44011,8:40 AM,08/24/2009,1:10 PM,01/09/2017,Level III,01/22/2025,Unannounced,Full,12,0,12,10,0,10,23,0,23,0,26,26,33,142,26,77,18,52,0,18,6,0,6,52,10,2,11,0,164,KINDERCARE OF AVON,ELAINE OBRIEN,E
400023,WORTHINGTON PRESCHOOL,https://childcaresearch.ohio.gov//pdf/000000400023_2025-01-16_ANNUAL.pdf,773 N HIGH ST,WORTHINGTON,43085,9:30 AM,11/26/1991,11:30 AM,09/05/2024,Exempt,01/16/2025,Unannounced,Full,0,0,0,0,0,0,0,84,84,0,0,0,0,110,84,84,0,0,0,0,0,0,0,0,1,1,2,0,110,WORTHINGTON PRESCHOOL,Barbara Smith,
400025,CARE AFTER SCHOOL - WORTHINGTON ESTATES,https://childcaresearch.ohio.gov//pdf/000000400025_2024-11-13_ANNUAL.pdf,6760 RIEBER ST,WORTHINGTON,43085,7:00 AM,,8:00 AM,,Level III,11/13/2024,Unannounced,Full,0,0,0,0,0,0,0,0,0,0,87,87,0,70,87,87,0,0,0,0,0,0,0,,0,0,0,0,,"CARE AFTER SCHOOL - WORTHINGTON
ESTATES",Catherine Moerch,School Building
400142,MOONLIGHT CHILD CARE,https://childcaresearch.ohio.gov//pdf/000000400142_2025-01-15_ANNUAL.pdf,4656 W. BROAD ST,COLUMBUS,43228,10:00 AM,,4:00 PM,03/07/2024,Level III,01/15/2025,Unannounced,Full,8,0,8,0,0,0,10,0,10,0,10,10,10,125,10,39,19,33,0,19,11,0,11,,11,0,7,0,,MOONLIGHT CHILD CARE,Colleen Adkinson,E
400193,MIAMI VALLEY CDC-MEDWAY,https://childcaresearch.ohio.gov//pdf/000000400193_2024-09-09_ANNUAL.pdf,116 MIDDLE STREET,MEDWAY,45341,10:20 AM,09/22/2006,2:42 PM,07/17/2020,Level IV,09/09/2024,Unannounced,Full,0,0,0,0,0,0,46,0,46,0,0,0,46,60,0,46,0,0,0,0,0,0,0,,0,0,0,0,,MIAMI VALLEY CDC-MEDWAY,JO ELLEN MORTON-CONRAD,E with 1-2
400566,WORLD OF WONDERMENT CDC,https://childcaresearch.ohio.gov//pdf/000000400566_2024-11-14_ANNUAL.pdf,215 N. 5TH STREET,KIRKERSVILLE,43033,12:30 PM,,1:30 PM,,Level II,11/14/2024,Unannounced,Full,0,0,0,0,0,0,0,0,0,0,35,35,0,54,35,35,0,0,0,0,0,0,0,,11,1,10,0,,WORLD OF WONDERMENT CDC,LISA NUTTER,School Building
400748,MILESTONE LANE,https://childcaresearch.ohio.gov//pdf/000000400748_2024-12-18_ANNUAL.pdf,201 N. GALENA RD.,SUNBURY,43074,8:00 AM,04/26/2021,1:30 PM,04/19/2021,,12/18/2024,Unannounced,Full,9,0,9,12,0,12,26,0,26,8,0,8,46,88,0,56,10,36,0,10,1,0,1,93,7,2,9,0,93,MILESTONE LANE,Sarena Powhida,E
400914,FAITH LUTHERAN CHRISTIAN PRESCHOOL,https://childcaresearch.ohio.gov//pdf/000000400914_2024-12-11_ANNUAL.pdf,170 MANSFIELD AVE,MT VERNON,43050,9:30 AM,,11:32 AM,08/28/2024,Exempt,12/11/2024,Unannounced,Full,0,0,0,0,0,0,0,48,48,0,0,0,0,36,48,48,0,2,0,0,0,0,0,,1,0,1,0,,FAITH LUTHERAN CHRISTIAN PRESCHOOL,AMY HILLARD,E
401127,PRIMROSE SCHOOL OF CANAL WINCHESTER,https://childcaresearch.ohio.gov//pdf/000000401127_2025-01-07_ANNUAL.pdf,6375 WINCHESTER BLVD,CANAL WINCHESTER,43110,11:15 AM,05/06/2016,3:05 PM,07/11/2024,Level III,01/07/2025,Unannounced,Full,15,0,15,14,0,14,57,0,57,0,13,13,71,221,13,120,36,69,0,36,21,0,21,,5,1,5,0,226,"PRIMROSE SCHOOL OF CANAL
WINCHESTER",Barbara Smith,E
401151,CITY CENTER CHILDCARE,https://childcaresearch.ohio.gov//pdf/000000401151_2024-08-12_ANNUAL.pdf,3721 BROADWAY,GROVE CITY,43123,8:45 AM,,10:00 AM,08/15/2023,Level III,08/12/2024,Unannounced,Full,0,0,0,0,0,0,0,0,0,2,0,2,2,101,0,2,0,12,0,0,0,0,0,,0,0,0,0,,CITY CENTER CHILDCARE,HEATHER STILLION,
401446,CREATIVE WORLD OF LEARNING - SPRINGFIELD,https://childcaresearch.ohio.gov//pdf/000000401446_2024-08-07_ANNUAL.pdf,332 KENSINGTON PLACE S,SPRINGFIELD,45503,9:00 AM,,3:15 PM,10/25/2023,,08/07/2024,Unannounced,Full,12,0,12,8,0,8,36,0,36,26,0,26,70,125,0,94,24,33,0,24,12,0,12,,14,1,12,0,,"CREATIVE WORLD OF LEARNING -
Springfield",Bradie McAfee,
402337,TRINITY LUTHERAN CHILD DEVELOPMENT CENTER,https://childcaresearch.ohio.gov//pdf/000000402337_2025-01-09_ANNUAL.pdf,18974 STATE ROUTE 12,ARCADIA,44804,10:30 AM,,1:15 PM,05/22/2024,,01/09/2025,Unannounced,Full,10,0,10,5,0,5,20,0,20,0,15,15,25,60,15,52,12,15,0,12,2,0,2,,10,1,8,0,,"TRINITY LUTHERAN CHILD DEVELOPMENT
CENTER",Heather Sanchez,
402455,THE OHIO STATE UNIVERSITY CHILD CARE PROGRAM,https://childcaresearch.ohio.gov//pdf/000000402455_2024-01-31_ANNUAL.pdf,725 ACKERMAN RD,COLUMBUS,43202,11:40 AM,,7:02 PM,05/20/2023,,01/31/2024,Unannounced,Full,34,0,34,32,0,32,90,0,90,7,0,7,,,,,72,180,0,72,38,0,38,,8,1,6,0,,"THE OHIO STATE UNIVERSITY CHILD CARE
PROGRAM",HEATHER WARES,
402850,HOLY TRINITY CHILD DEVELOPMENT CENTER,https://childcaresearch.ohio.gov//pdf/000000402850_2024-11-07_ANNUAL.pdf,2001 NORTHWEST BOULEVARD,COLUMBUS,43212,11:00 AM,09/17/1987,11:39 AM,03/21/2024,Level III,11/12/2024,Unannounced,Full,0,0,0,0,7,7,0,36,36,0,46,46,0,126,89,89,0,0,0,0,0,0,0,0,8,2,8,0,95,"HOLY TRINITY CHILD DEVELOPMENT
CENTER",LISA NUTTER,E
403089,NATIONWIDE CHILDREN'S HOSPITAL CHILD CARE CENTER,https://childcaresearch.ohio.gov//pdf/000000403089_2024-12-16_ANNUAL.pdf,646 S. 18TH ST.,COLUMBUS,43205,8:10 AM,12/14/2021,4:35 PM,,Level III,12/16/2024,Unannounced,Full,82,0,82,35,0,35,125,0,125,7,0,7,167,316,0,317,150,176,0,150,68,0,68,,8,1,7,0,607,"NATIONWIDE CHILDREN'S HOSPITAL CHILD
CARE CENTER",Lia Seabrook,E
403106,MAYWOOD LEARNING CENTER,https://childcaresearch.ohio.gov//pdf/000000403106_2025-01-02_ANNUAL.pdf,1029 S BROAD ST,LANCASTER,43130,9:23 AM,08/12/2004,11:30 AM,03/18/2024,Level III,01/02/2025,Unannounced,Full,0,0,0,0,0,0,16,0,16,0,18,18,16,81,18,34,0,81,0,0,0,0,0,,3,0,3,0,99,Maywood Learning Center,Sara Goke,E
403687,YMCA OF DARKE COUNTY CHILD DEVELOPMENT CENTER,https://childcaresearch.ohio.gov//pdf/000000403687_2024-11-26_ANNUAL.pdf,301 WAGNER AVE BOX 128,GREENVILLE,45331,9:30 AM,09/05/1991,2:00 PM,06/21/2018,Level III,11/26/2024,Unannounced,Full,3,0,3,4,0,4,12,0,12,20,0,20,36,133,0,46,10,29,0,10,7,0,7,,9,1,9,0,210,"YMCA of Darke County Child Development
Center",Kathryn Koester,1-2
403711,LA PETITE ACADEMY,https://childcaresearch.ohio.gov//pdf/000000403711_2024-11-13_ANNUAL.pdf,50 BANNOCKBURN BLVD,BLACKLICK,43004,9:30 AM,,6:00 PM,,Level III,11/13/2024,Unannounced,Full,12,0,12,13,0,13,51,0,51,0,14,14,64,162,14,102,24,48,0,24,12,0,12,,24,2,21,0,,LA PETITE ACADEMY,Darcie Schofield,
403814,YOUNG LEARNER'S WORLD OF BEAVERCREEK,https://childcaresearch.ohio.gov//pdf/000000403814_2023-11-29_ANNUAL.pdf,2308 LAKEVIEW DRIVE,BEAVERCREEK,45431,8:40 AM,,12:55 PM,07/05/2023,Level III,11/29/2023,Unannounced,Full,5,0,5,1,0,1,12,0,12,0,6,6,13,161,6,27,8,48,0,8,3,0,3,,24,3,22,0,,"YOUNG LEARNER'S WORLD OF
BEAVERCREEK",KEYAUNA BABER,
403871,OHIOHEALTH CHILDREN'S CENTER,https://childcaresearch.ohio.gov//pdf/000000403871_2024-10-28_ANNUAL.pdf,835 THOMAS LANE,COLUMBUS,43214,9:30 AM,,11:30 AM,01/31/2024,,10/29/2024,Unannounced,Full,,,,,,,,,,,,,,,,,,,,,,,,,18,3,14,0,,OHIOHEALTH CHILDREN'S CENTER,Lakesha Williams,
404833,THE PLAY AND LEARN EXPRESS,https://childcaresearch.ohio.gov//pdf/000000404833_2025-01-08_ANNUAL.pdf,369 N HIGH STREET,CHILLICOTHE,45601,8:00 AM,,2:00 PM,12/09/2024,Level III,01/08/2025,Unannounced,Full,14,0,14,2,0,2,36,0,36,0,62,62,38,135,62,127,27,30,0,27,13,0,13,,15,4,16,0,,THE PLAY AND LEARN EXPRESS,AMY HILLARD,E
405976,"BRIGHT BEGINNINGS, INC.",https://childcaresearch.ohio.gov//pdf/000000405976_2024-08-20_ANNUAL.pdf,2973 LANTZ ROAD,BEAVERCREEK,45434,8:15 AM,04/09/2013,2:51 PM,12/14/2023,Level II,08/20/2024,Unannounced,Full,21,0,21,18,0,18,47,0,47,0,59,59,65,220,59,172,48,52,0,48,27,0,27,94,6,0,6,0,123,"Bright Beginnings, Inc.",Steffani Roberts,E
406485,GREENE STREET DAY CARE/PRESCHOOL,https://childcaresearch.ohio.gov//pdf/000000406485_2024-11-26_ANNUAL.pdf,415 W GREENE ST,PIQUA,45356,9:45 AM,11/23/1998,1:30 PM,12/08/2023,Level II,11/26/2024,Unannounced,Full,14,0,14,3,0,3,45,30,75,2,134,136,50,198,164,244,30,28,0,30,16,0,16,,13,2,10,0,,GREENE STREET DAY CARE/PRESCHOOL,KEYAUNA BABER,E
407431,LAUGH AND LEARN DAY CARE LLC,https://childcaresearch.ohio.gov//pdf/000000407431_2024-12-10_ANNUAL.pdf,295 N LONG STREET,ASHVILLE,43103,11:00 AM,12/04/2008,3:00 PM,08/22/2024,Level II,12/10/2024,Unannounced,Full,4,0,4,7,0,7,12,0,12,0,0,0,19,30,0,29,10,18,0,10,6,0,6,18,8,0,7,0,30,LAUGH AND LEARN DAY CARE LLC,Colleen Adkinson,E
407667,INDIAN SPRINGS Y-CLUB,https://childcaresearch.ohio.gov//pdf/000000407667_2024-11-04_ANNUAL.pdf,3828 HOME ROAD,POWELL,43065,8:00 AM,06/30/2009,1:42 PM,04/19/2016,Level III,10/24/2024,Unannounced,Full,10,0,10,7,0,7,47,0,47,38,0,38,92,152,0,113,21,41,0,21,11,0,11,none,8,0,8,0,85,"IMAGINATIVE BEGINNINGS EARLY
LEARNING CENTER LLC",ELLEN WOODRUFF,E
408218,LEADS HEAD START UTICA,https://childcaresearch.ohio.gov//pdf/000000408218_2024-12-03_ANNUAL.pdf,308 N. MAIN STREET,UTICA,43080,9:00 AM,03/25/2005,10:11 AM,05/20/2024,Level III,12/03/2024,Unannounced,Full,0,0,0,0,0,0,20,0,20,0,0,0,20,45,0,20,0,0,0,0,0,0,0,,0,0,0,0,,LEADS HEAD START UTICA,Sara Goke,E
408230,HHWP HEAD START- FOREST CENTER,https://childcaresearch.ohio.gov//pdf/000000408230_2023-11-15_ANNUAL.pdf,111 EAST DIXON STREET,FOREST,45843,9:55 AM,04/01/1981,1:00 PM,08/13/2020,Level II,11/15/2023,Unannounced,Full,0,0,0,0,0,0,18,0,18,1,0,1,19,20,0,19,0,0,0,0,0,0,0,,0,0,0,0,20,HHWP HEAD START- FOREST CENTER,ELLEN WOODRUFF,A-4
409630,JC KIDS DAYCARE & LEARNING CENTER,https://childcaresearch.ohio.gov//pdf/000000409630_2024-11-14_ANNUAL.pdf,464 STEWART ROAD,MANSFIELD,44905,10:50 AM,04/20/2006,2:52 PM,02/12/2024,Exempt,11/14/2024,Unannounced,Full,5,0,5,6,0,6,22,0,22,5,14,19,33,69,14,60,13,33,0,13,8,0,8,,6,0,6,0,130,JC KIDS DAYCARE & LEARNING CENTER,MARY WOODLAND,E
409802,MEADOW VIEW CHRISTIAN PRESCHOOL,https://childcaresearch.ohio.gov//pdf/000000409802_2024-10-15_ANNUAL.pdf,6750 RAIDERS ROAD,FRAZEYSBURG,43822,9:32 AM,,11:40 AM,08/29/2024,,10/15/2024,Unannounced,Full,0,0,0,,,,,,,,,,,,,,,,,,0,0,0,,7,1,6,0,,Meadow View Christian Preschool,Lakesha Williams,
410578,JUBBA DAYCARE WEST INC,https://childcaresearch.ohio.gov//pdf/000000410578_2025-01-22_ANNUAL.pdf,3770 WEST BROAD ST #70,COLUMBUS,43228,11:00 AM,04/02/2008,2:20 PM,08/22/2018,Level III,01/22/2025,Unannounced,Full,9,0,9,12,0,12,13,0,13,45,0,45,70,163,0,81,11,49,0,11,2,0,2,,11,1,12,0,,JUBBA DAYCARE WEST INC,Jada Hightower,E
500187,GLCAP CHILD DEVELOPMENT PROGRAM - GENOA,https://childcaresearch.ohio.gov//pdf/000000500187_2024-10-07_ANNUAL.pdf,1224 WEST ST,GENOA,43430,11:30 AM,05/04/2016,1:00 PM,07/14/2017,Level II,10/07/2024,Unannounced,Full,0,0,0,0,0,0,34,0,34,0,0,0,34,40,0,34,0,0,0,0,0,0,0,0,3,0,3,0,63,"GLCAP CHILD DEVELOPMENT PROGRAM -
GENOA",KAROLINE OBERHAUS,E
500276,"A RAINBOW'S TREASURE, LLC",https://childcaresearch.ohio.gov//pdf/000000500276_2024-07-15_ANNUAL.pdf,4725 DORR ST,TOLEDO,43615,9:15 AM,06/28/2012,12:00 PM,09/20/2021,Level II,07/15/2024,Unannounced,Full,8,0,8,4,0,4,8,0,8,0,0,0,12,97,0,21,9,20,0,9,1,0,1,52,7,0,7,0,122,"A RAINBOW'S TREASURE, LLC",Beverly Sutter,E
500278,CAREBARE CHILDCARE LLC,https://childcaresearch.ohio.gov//pdf/000000500278_2024-12-10_ANNUAL.pdf,6214 N. SUMMIT ST,TOLEDO,43611,8:45 AM,,12:15 PM,09/27/2024,,12/10/2024,Unannounced,Full,0,0,0,9,0,9,6,0,6,11,0,11,26,100,0,26,0,40,0,0,0,0,0,,1,0,1,0,,CAREBARE CHILDCARE LLC,Maribeth Tercha,
500327,LITTLE MIRACLES MONTESSORI SCHOOL-ST ELIAS,https://childcaresearch.ohio.gov//pdf/000000500327_2024-02-27_ANNUAL.pdf,4940 HARROUN RD,SYLVANIA,43560,9:30 AM,01/12/2016,1:30 PM,08/31/2020,Level III,02/27/2024,Unannounced,Full,17,0,17,14,0,14,84,0,84,0,0,0,98,152,0,132,34,46,0,34,17,0,17,E,3,0,3,0,52,"LITTLE MIRACLES MONTESSORI SCHOOL-ST
ELIAS",REBECCA COY,E
501156,CHILD'S WORLD PRESCHOOL,https://childcaresearch.ohio.gov//pdf/000000501156_2024-10-15_ANNUAL.pdf,300 SHORT-BUEHRER RD,ARCHBOLD,43502,2:00 PM,07/30/1986,2:32 PM,09/13/2024,Exempt,10/15/2024,Unannounced,Full,0,0,0,0,0,0,0,43,43,0,0,0,0,35,43,43,0,0,0,0,0,0,0,,0,0,0,0,79,CHILD'S WORLD PRESCHOOL,REBECCA COY,BB 303 (pre 1970)
501304,COMMUNITY CHILD CARE CENTER,https://childcaresearch.ohio.gov//pdf/000000501304_2024-10-09_ANNUAL.pdf,58 E MAIN ST,NEW LONDON,44851,7:10 AM,,2:00 PM,01/31/2024,Level III,10/09/2024,Unannounced,Full,3,0,3,3,0,3,12,0,12,0,20,20,15,50,20,40,5,5,0,5,2,0,2,,15,2,14,0,,COMMUNITY CHILD CARE CENTER,ELAINE OBRIEN,E
501509,CROSSWOOD UNITED METHODIST CHRISTIAN PRESCHOOL,https://childcaresearch.ohio.gov//pdf/000000501509_2024-10-08_ANNUAL.pdf,1551 RICHLAND RD,MARION,43302,9:00 AM,,12:45 PM,09/24/2020,Exempt,10/08/2024,Unannounced,Full,0,0,0,0,0,0,34,0,34,0,0,0,34,24,0,34,0,0,0,0,0,0,0,,5,0,4,0,,"CROSSWOOD UNITED METHODIST
CHRISTIAN PRESCHOOL",Rebecca Worrell,
502522,POPLAR RIDGE TRAINING STATION,https://childcaresearch.ohio.gov//pdf/000000502522_2024-11-18_ANNUAL.pdf,06970 DOMERSVILLE RD,DEFIANCE,43512,9:45 AM,10/05/2011,12:15 PM,08/20/2024,Level II,11/21/2024,Unannounced,Full,0,0,0,0,0,0,43,0,43,24,0,24,67,72,0,67,0,0,0,0,0,0,0,,7,1,6,0,819,POPLAR RIDGE TRAINING STATION,Beverly Sutter,E
502926,YMCA CHILD CARE @ ANDERSON FAMILY ENRICHMENT CENTER,https://childcaresearch.ohio.gov//pdf/000000502926_2024-07-11_ANNUAL.pdf,2100 S HOLLAND SYLVANIA RD,MAUMEE,43537,9:53 AM,08/20/1997,1:33 PM,08/30/2017,Level IV,07/11/2024,Unannounced,Full,0,0,0,0,0,0,20,0,20,92,0,92,112,99,0,112,0,0,0,0,0,0,0,,0,0,0,0,,"YMCA CHILD CARE @ ANDERSON FAMILY
ENRICHMENT CENTER",ELLEN WOODRUFF,E
503231,CENTRAL HEAD START,https://childcaresearch.ohio.gov//pdf/000000503231_2024-02-06_ANNUAL.pdf,540 S. CENTRAL,LIMA,45804,8:47 AM,04/07/1999,12:00 PM,04/28/2016,Level IV,02/06/2024,Unannounced,Full,1,0,1,4,0,4,39,0,39,0,0,0,43,132,0,55,12,27,0,12,11,0,11,none,2,0,2,0,none,CENTRAL HEAD START,SARA DIERKSHEIDE,E
503339,WEE CARE LEARNING CENTER,https://childcaresearch.ohio.gov//pdf/000000503339_2024-02-27_ANNUAL.pdf,10485 VAN WERT DECATUR RD,VAN WERT,45891,7:31 AM,01/06/2005,12:30 PM,08/24/2018,Level III,02/27/2024,Unannounced,Full,36,0,36,8,0,8,80,0,80,23,24,47,111,286,24,190,55,63,0,55,19,0,19,,3,0,3,0,355,WEE CARE LEARNING CENTER,SARA DIERKSHEIDE,E
504167,IMAGINATIVE BEGINNINGS EARLY LEARNING CENTER LLC,https://childcaresearch.ohio.gov//pdf/000000504167_2024-10-24_ANNUAL.pdf,4937 WOODVILLE RD,NORTHWOOD,43619,8:00 AM,06/30/2009,1:42 PM,04/19/2016,Level III,10/24/2024,Unannounced,Full,10,0,10,7,0,7,47,0,47,38,0,38,92,152,0,113,21,41,0,21,11,0,11,,8,0,8,0,85,"IMAGINATIVE BEGINNINGS EARLY
LEARNING CENTER LLC",ELLEN WOODRUFF,E
