program_id,program_name,pdf,Address,City,Zip
403089,NATIONWIDE CHILDREN'S HOSPITAL CHILD CARE CENTER,https://childcaresearch.ohio.gov//pdf/000000403089_2024-12-16_ANNUAL.pdf,646 S. 18TH ST.,COLUMBUS,43205
100093,KIDSTOWN CHILDCARE AND PRESCHOOL,https://childcaresearch.ohio.gov//pdf/000000100093_2024-02-07_ANNUAL.pdf,55 STADIUM DRIVE,BOARDMAN,44512
100253,GROWING KIDS ACADEMY,https://childcaresearch.ohio.gov//pdf/000000100253_2024-07-25_ANNUAL.pdf,2935 SUITE #1 MARKET STREET,YOUNGSTOWN,44507
100365,YMCA CHILD CARE @ AVONDALE ELEMENTARY,https://childcaresearch.ohio.gov//pdf/000000100365_2024-09-11_ANNUAL.pdf,3933 EATON DR. NW,CANTON,44708
100402,HEAD START AT DAVID BACON,https://childcaresearch.ohio.gov//pdf/000000100402_2024-11-25_ANNUAL.pdf,181 STRECKER DRIVE,TALLMADGE,44278
100421,THE LEARNING TREE CHILDCARE CENTER LLC,https://childcaresearch.ohio.gov//pdf/000000100421_2024-07-10_ANNUAL.pdf,76 S MARKET ST,EAST PALESTINE,44413
101128,YWCA CANTON EARLY CHILDHOOD LEARNING CENTER,https://childcaresearch.ohio.gov//pdf/000000101128_2024-12-03_ANNUAL.pdf,231 SIXTH STREET N.E.,CANTON,44702
101640,MONTESSORI PRESCHOOL OF COSHOCTON INC,https://childcaresearch.ohio.gov//pdf/000000101640_2024-10-30_ANNUAL.pdf,142 N FOURTH ST,COSHOCTON,43812
101906,WINONA METHODIST PRESCHOOL,https://childcaresearch.ohio.gov//pdf/000000101906_2024-12-11_ANNUAL.pdf,32114 WINONA RD,WINONA,44493
102387,VILLA MARIA TERESA,https://childcaresearch.ohio.gov//pdf/000000102387_2024-12-18_ANNUAL.pdf,50 WARNER RD,HUBBARD,44425
102811,VALLEY KIDS,https://childcaresearch.ohio.gov//pdf/000000102811_2024-09-09_ANNUAL.pdf,1670 AKRON PENINSULA RD,AKRON,44313
103519,"JUST FOR KIDS CHILD CARE AND LEARNING CENTER, INC.",https://childcaresearch.ohio.gov//pdf/000000103519_2024-08-06_ANNUAL.pdf,10313 SOUTH ST,GARRETTSVILLE,44231
104265,CHILDTIME LEARNING CENTER,https://childcaresearch.ohio.gov//pdf/000000104265_2024-10-16_ANNUAL.pdf,3101 GRAHAM RD,STOW,44224
104712,HARTZ EARLY CARE AND EDUCATION CENTER,https://childcaresearch.ohio.gov//pdf/000000104712_2023-10-24_ANNUAL.pdf,230 STOW AVENUE,CUYAHOGA FALLS,44221
106298,KOZMIC KORNER INC,https://childcaresearch.ohio.gov//pdf/000000106298_2024-07-01_ANNUAL.pdf,8282 PORT JACKSON AVE NW,NORTH CANTON,44720
106850,HEAD START AT CEDAR,https://childcaresearch.ohio.gov//pdf/000000106850_2024-01-24_ANNUAL.pdf,442 BELL STREET,AKRON,44307
107064,A PLACE FOR EVERYONE LLC,https://childcaresearch.ohio.gov//pdf/000000107064_2024-12-10_ANNUAL.pdf,5192 DARROW RD,HUDSON,44236
200015,PRIMROSE SCHOOL AT WEST CHESTER,https://childcaresearch.ohio.gov//pdf/000000200015_2024-10-21_ANNUAL.pdf,8378 PRINCETON GLENDALE ROAD,WEST CHESTER,45069
200185,YMCA AT RUSHMORE,https://childcaresearch.ohio.gov//pdf/000000200185_2024-10-17_ANNUAL.pdf,7701 BERCHMAN,HUBER HEIGHTS,45424
200348,YMCA SCHOOL AGE ENRICHMENT PROGRAM @ DECA PREP,https://childcaresearch.ohio.gov//pdf/000000200348_2024-11-01_ANNUAL.pdf,249 SQUIRREL ROAD,DAYTON,45405
200371,COVENANT CHILDREN'S ACADEMY,https://childcaresearch.ohio.gov//pdf/000000200371_2024-10-15_ANNUAL.pdf,201 N LIMESTONE ST,SPRINGFIELD,45503
200377,XENIA YMCA CHILD CARE CENTER,https://childcaresearch.ohio.gov//pdf/000000200377_2024-12-23_ANNUAL.pdf,336 S.PROGRESS DRIVE,XENIA,45385
200493,CEDARVILLE LEARNING CENTER,https://childcaresearch.ohio.gov//pdf/000000200493_2024-01-12_ANNUAL.pdf,296 N MAIN ST,CEDARVILLE,45314
200584,"TREE HOUSE CHILDCARE, INC.",https://childcaresearch.ohio.gov//pdf/000000200584_2024-10-29_ANNUAL.pdf,949 HARRISON AVE,HARRISON,45030
200585,OUR FATHER CHILDREN'S CENTER,https://childcaresearch.ohio.gov//pdf/000000200585_2024-09-16_ANNUAL.pdf,11505 LINCOLNSHIRE,FOREST PARK,45240
200644,A GREAT START PRESCHOOL INC,https://childcaresearch.ohio.gov//pdf/000000200644_2024-11-21_ANNUAL.pdf,7001 FAR HILLS AVE,DAYTON,45459
200683,CHILD FOCUS PRESCHOOL PROGRAM AT THOMASTON WOODS,https://childcaresearch.ohio.gov//pdf/000000200683_2024-12-12_ANNUAL.pdf,1460 THOMASTON WOODS DRIVE,AMELIA,45102
200719,KINDERCARE LEARNING CENTER #123,https://childcaresearch.ohio.gov//pdf/000000200719_2024-08-15_ANNUAL.pdf,418 W WENGER RD,ENGLEWOOD,45322
200913,TINY STEPS DEVELOPMENT CENTER INC.,https://childcaresearch.ohio.gov//pdf/000000200913_2024-07-29_ANNUAL.pdf,6001 MADISON RD,CINCINNATI,45227
200947,YOUTHLAND ACADEMY OF BLUE ASH,https://childcaresearch.ohio.gov//pdf/000000200947_2024-08-13_ANNUAL.pdf,9280 PLAINFIELD RD,CINCINNATI,45236
200979,A BRIGHTER START CHILDCARE,https://childcaresearch.ohio.gov//pdf/000000200979_2024-10-02_ANNUAL.pdf,2765 BLUE ROCK RD.,CINCINNATI,45239
201348,WEE-CARE LEARNING CENTER,https://childcaresearch.ohio.gov//pdf/000000201348_2024-07-09_ANNUAL.pdf,4886 STATE ROUTE 125,GEORGETOWN,45121
201452,IVY'S UNIQUE KIDS INC.,https://childcaresearch.ohio.gov//pdf/000000201452_2024-11-05_ANNUAL.pdf,2065 SCHAPPELLE LANE,FOREST PARK,45240
203695,LAKOTA FAMILY YMCA AT HERITAGE,https://childcaresearch.ohio.gov//pdf/000000203695_2024-10-04_ANNUAL.pdf,5052 HAMILTON MASON RD,HAMILTON,45011
204064,WEE-HAVEN CHILDREN'S CENTER INC,https://childcaresearch.ohio.gov//pdf/000000204064_2024-10-23_ANNUAL.pdf,2201 W SCHANTZ AVE,KETTERING,45409
204337,GMV YMCA @ HIGHLAND ELEMENTARY,https://childcaresearch.ohio.gov//pdf/000000204337_2024-09-10_ANNUAL.pdf,1125 MAIN STREET,HAMILTON,45013
204837,COUNTRY HILLS EAST MONTESSORI LTD,https://childcaresearch.ohio.gov//pdf/000000204837_2023-12-12_ANNUAL.pdf,4400 GLEN ESTE-WITHAMSVILLE RD,CINCINNATI,45245
204960,WINNIE THE POOH CHILDREN'S CENTER,https://childcaresearch.ohio.gov//pdf/000000204960_2024-01-09_ANNUAL.pdf,3962 BRITTON BOULEVARD,CINCINNATI,45245
205547,A CHILD'S GARDEN,https://childcaresearch.ohio.gov//pdf/000000205547_2024-12-18_ANNUAL.pdf,5427 JULMAR DRIVE,CINCINNATI,45238
205682,RAINBOW YEARS CHILD CARE,https://childcaresearch.ohio.gov//pdf/000000205682_2024-07-23_ANNUAL.pdf,2727 S SMITHVILLE ROAD,DAYTON,45420
205904,KINDERCARE LEARNING CENTER #124,https://childcaresearch.ohio.gov//pdf/000000205904_2024-07-08_ANNUAL.pdf,1111 E STROOP ROAD,KETTERING,45429
206065,GREENBUSH HEAD START CENTER,https://childcaresearch.ohio.gov//pdf/000000206065_2024-10-30_ANNUAL.pdf,16003 STATE ROUTE 68,MT ORAB,45154
206284,KCE CHAMPIONS LLC @ LOVELAND,https://childcaresearch.ohio.gov//pdf/000000206284_2024-10-03_ANNUAL.pdf,550 LOVELAND-MADEIRA ROAD,LOVELAND,45140
206527,YMCA SCHOOLAGE ENRICHMENT PROGRAM AT MEDLAR VIEW,https://childcaresearch.ohio.gov//pdf/000000206527_2024-10-10_ANNUAL.pdf,4400 MEDLAR RD,MIAMISBURG,45342
206528,YMCA SCHOOL AGE ENRICHMENT PROGRAM AT BAUER,https://childcaresearch.ohio.gov//pdf/000000206528_2024-10-28_ANNUAL.pdf,6951 SPRINGBORO PK,DAYTON,45449
206534,GMV YMCA @ KRAMER ELEMENTARY,https://childcaresearch.ohio.gov//pdf/000000206534_2024-02-27_ANNUAL.pdf,400 W. SYCAMORE STREET,OXFORD,45056
206750,TREE HOUSE CHILDCARE,https://childcaresearch.ohio.gov//pdf/000000206750_2024-10-09_ANNUAL.pdf,5910 COLERAIN AVENUE,CINCINNATI,45239
207513,"HICKORY DICKORY TOTS, LLC",https://childcaresearch.ohio.gov//pdf/000000207513_2024-10-29_ANNUAL.pdf,9057 CINCINNATI-COLUMBUS RD,WEST CHESTER,45069
207706,NEXT GENERATION CHILDCARE AND LEARNING CENTER,https://childcaresearch.ohio.gov//pdf/000000207706_2023-08-01_ANNUAL.pdf,2780 BANNING ROAD,CINCINNATI,45239
207714,LITTLE VILLAGE KIDS,https://childcaresearch.ohio.gov//pdf/000000207714_2024-10-22_ANNUAL.pdf,"935 DEIS DR, STE B",FAIRFIELD,45014
207738,TIME FOR KIDS,https://childcaresearch.ohio.gov//pdf/000000207738_2024-10-24_ANNUAL.pdf,7247 ZOAR RD,MAINEVILLE,45039
2170012482,A CHILD'S JOURNEY LEARNING CENTER,https://childcaresearch.ohio.gov//pdf/002170012482_2024-08-09_ANNUAL.pdf,846 S. YEARLING RD,WHITEHALL,43213
2170012486,LET'S PLAY SCHOOL EARLY LEARNING AND DEVELOPMENT CEN,https://childcaresearch.ohio.gov//pdf/002170012486_2024-02-26_ANNUAL.pdf,3445 E MANHATTAN,TOLEDO,43611
2170012592,YOUTHLAND ACADEMY OF BEEKMAN,https://childcaresearch.ohio.gov//pdf/002170012592_2024-12-27_ANNUAL.pdf,3277 BEEKMAN,CINCINNATI,45225
2170014418,RAINBOW EARLY LEARNING CENTER,https://childcaresearch.ohio.gov//pdf/002170014418_2024-07-18_ANNUAL.pdf,350 THREE RIVERS PARKWAY,NORTHBEND,45052
2170014452,KAMPUSLAND INC.,https://childcaresearch.ohio.gov//pdf/002170014452_2023-08-04_ANNUAL.pdf,750 DERBY AVE,CINCINNATI,45232
2170014522,AGAPE ACADEMY,https://childcaresearch.ohio.gov//pdf/002170014522_2024-12-13_ANNUAL.pdf,4519 CEMETERY RD,HILLIARD,43026
2170014793,APPLES OF GOLD ENRICHMENT CENTER,https://childcaresearch.ohio.gov//pdf/002170014793_2024-03-26_ANNUAL.pdf,4215 BLUESTONE,SOUTH EUCLID,44121
2170015182,PEEK A BOO LEARNING ACADEMY,https://childcaresearch.ohio.gov//pdf/002170015182_2023-08-17_ANNUAL.pdf,762 WAYCROSS ROAD,CINCINNATI,45240
2170015350,KIDDIE ACADEMY OF HILLIARD,https://childcaresearch.ohio.gov//pdf/002170015350_2024-07-26_ANNUAL.pdf,2525 ROBERTS COURT,HILLIARD,43026
2170015375,ZION CHRISTIAN EARLY LEARNING CENTER BEFORE AND AFTER CARE,https://childcaresearch.ohio.gov//pdf/002170015375_2024-11-05_ANNUAL.pdf,400 HILLTOP BLVD,CANFIELD,44406
2170015375,ZION CHRISTIAN EARLY LEARNING CENTER BEFORE AND AFTER CARE,https://childcaresearch.ohio.gov//pdf/002170015375_2024-11-05_ANNUAL.pdf,400 HILLTOP BLVD,CANFIELD,44406
2170015810,KIND AND CARING LEARNING CENTER,https://childcaresearch.ohio.gov//pdf/002170015810_2024-11-01_ANNUAL.pdf,37 ESWIN STREET,CINCINNATI,45218
2170016184,INTELLIGENT MINDS CHILDCARE CENTER,https://childcaresearch.ohio.gov//pdf/002170016184_2025-01-22_ANNUAL.pdf,1032 JACKSON STREET,CINCINNATI,45215
2170016535,LITTLE BLESSINGS CHILDCARE LEARNING CENTER LLC,https://childcaresearch.ohio.gov//pdf/002170016535_2024-09-23_ANNUAL.pdf,1849 OTTAWA DRIVE,TOLEDO,43606
2180016702,ALLY CHILD CARE,https://childcaresearch.ohio.gov//pdf/002180016702_2024-08-07_ANNUAL.pdf,7016 CORPORATE WAY,DAYTON,45459
2180017848,"OHIO LEARNING ACADEMY, INC",https://childcaresearch.ohio.gov//pdf/002180017848_2024-11-01_ANNUAL.pdf,5475 SANDALWOOD BLVD.,COLUMBUS,43229
2180018063,LEARNING CLUBHOUSE LLC,https://childcaresearch.ohio.gov//pdf/002180018063_2024-09-18_ANNUAL.pdf,2365 COMPTON ROAD,CINCINNATI,45231
2180018482,THE NEST SCHOOLS STATE,https://childcaresearch.ohio.gov//pdf/002180018482_2024-11-05_ANNUAL.pdf,600 N. STATE ST.,WESTERVILLE,43082
2190019643,JONAH'S CREATIVE CENTER LLC,https://childcaresearch.ohio.gov//pdf/002190019643_2024-07-24_ANNUAL.pdf,7819 WEST CHESTER ROAD,CINCINNATI,45069
2190019909,WEE CARE DAY CARE AND LEARNING CENTRE,https://childcaresearch.ohio.gov//pdf/002190019909_2024-08-15_ANNUAL.pdf,1101 FORD AVE,YOUNGSTOWN,44504
2190019951,PITTER PATTER LEARNING CENTER,https://childcaresearch.ohio.gov//pdf/002190019951_2024-10-22_ANNUAL.pdf,5500 NORTH DIXIE DRIVE,DAYTON,45414
2190020152,RIGHT AT SCHOOL AT FAIRBROOK ELEMENTARY SCHOOL,https://childcaresearch.ohio.gov//pdf/002190020152_2024-10-01_ANNUAL.pdf,260 N. FAIRFIELD ROAD,BEAVERCREEK,45430
2190020169,LIL' RASCALS LEARNING ACADEMY,https://childcaresearch.ohio.gov//pdf/002190020169_2024-11-25_ANNUAL.pdf,2543 FRANKSWAY STREET,COLUMBUS,43232
2190020846,COMPLETE CARE DEVELOPMENT CENTER LLC,https://childcaresearch.ohio.gov//pdf/002190020846_2024-09-25_ANNUAL.pdf,3557 SPRINGDALE RD,CINCINNATI,45251
2190021104,LEARNING CENTER FOR LITTLE SCHOLARS LLC4640,https://childcaresearch.ohio.gov//pdf/002190021104_2025-01-22_ANNUAL.pdf,4640 RICHMOND ROAD   SUITE100,WARRENSVILLE,44128
2200021241,H.HILLS LEARNING ACADEMY,https://childcaresearch.ohio.gov//pdf/002200021241_2024-12-31_ANNUAL.pdf,5881 CHANTRY DRIVE,COLUMBUS,43232
2200021583,"TINY TECH UNIVERSITY, INC",https://childcaresearch.ohio.gov//pdf/002200021583_2024-12-05_ANNUAL.pdf,4400 SPENCERVILLE RD,LIMA,45805
2200022105,"ROMERO ACADEMY AT RESURRECTION FAMILY SERVICES, LLC",https://childcaresearch.ohio.gov//pdf/002200022105_2024-11-13_ANNUAL.pdf,1750 FIRST AVENUE,CINCINNATI,45205
2200022359,NURTURING EXCELLENCE CHILD ENRICHMENT CENTER LLC.,https://childcaresearch.ohio.gov//pdf/002200022359_2025-01-13_ANNUAL.pdf,1008 EAST 152ND STREET SUITE B,CLEVELAND,44110
2200022506,EARLY LEARNING AND FINE ARTS CHILD CARE CENTER,https://childcaresearch.ohio.gov//pdf/002200022506_2024-08-06_ANNUAL.pdf,4021 HARRISON AVE,CINCINATI,45211
2200022564,PEACOX CHILD CARE II,https://childcaresearch.ohio.gov//pdf/002200022564_2024-11-20_ANNUAL.pdf,900 BEECHWOOD ROAD,COLUMBUS,43227
2200022632,LUCKY ACADEMY LTD,https://childcaresearch.ohio.gov//pdf/002200022632_2024-12-12_ANNUAL.pdf,79 NORTH WILSON RD,COLUMBUS,43204
2200023127,NIGHTINGALE MONTESSORI NORTH CAMPUS,https://childcaresearch.ohio.gov//pdf/002200023127_2024-10-03_ANNUAL.pdf,2525 NORTH LIMESTONE ST,SPRINGFIELD,45503
2200023203,HELPING HANDS CHILDCARE AND WELLNESS CENTER II LLC,https://childcaresearch.ohio.gov//pdf/002200023203_2025-01-16_ANNUAL.pdf,449 MIDWAY BLVD,ELYRIA,44035
2200023403,PRIMROSE SCHOOL OF STRONGSVILLE,https://childcaresearch.ohio.gov//pdf/002200023403_2024-07-18_ANNUAL.pdf,18713 PEARL RD.,STRONGSVILLE,44136
2210024174,"TRI-VILLAGE CHRISTIAN ACADEMY, LLC",https://childcaresearch.ohio.gov//pdf/002210024174_2024-10-29_ANNUAL.pdf,7509 E BROAD ST SW,PATASKALA,43062
2210024216,TIMBER TOPS DAYHOME,https://childcaresearch.ohio.gov//pdf/002210024216_2024-11-18_ANNUAL.pdf,74 S. PLAINS ROAD,THE PLAINS,45780
2210024850,"MY LITTLE WORLD ACADEMY, LLC",https://childcaresearch.ohio.gov//pdf/002210024850_2024-12-16_ANNUAL.pdf,1405 MOLER RD,COLUMBUS,43207
2210025000,MAANDEEQ CHILDCARE LEARNING CENTER LLC,https://childcaresearch.ohio.gov//pdf/002210025000_2024-07-15_ANNUAL.pdf,1997 E. DUBLIN GRANVILLE ROAD,COLUMBUS,43229
2210025351,WRIBBENHALL CHILD DEVELOPMENT CENTER,https://childcaresearch.ohio.gov//pdf/002210025351_2024-12-04_ANNUAL.pdf,1235 BROAD BLVD.,CUYAHOGA FALLS,44223
2220025965,YMCA CHILD CARE AT TOTH,https://childcaresearch.ohio.gov//pdf/002220025965_2024-10-22_ANNUAL.pdf,200 EAST SEVENTH ST.,PERRYSBURG,43551
2220026213,PRECIOUS JEWELS LEARNING ACADEMY,https://childcaresearch.ohio.gov//pdf/002220026213_2024-11-25_ANNUAL.pdf,14610 HARVARD AVE,CLEVELAND,44128
2220026264,HILL CHILDCARE AND FAMILY CENTER II,https://childcaresearch.ohio.gov//pdf/002220026264_2025-01-15_ANNUAL.pdf,2494 SUNNY HILL DRIVE,CINCINNATI,45225
2220026364,KINDERCARE LEARNING CENTERS LLC-TAYLOR WOODS,https://childcaresearch.ohio.gov//pdf/002220026364_2024-11-21_ANNUAL.pdf,8315 TAYLOR RD. SW,REYNOLDSBURG,43086
2220026422,DISCOVERY POINT EARLY LEARNING CENTER,https://childcaresearch.ohio.gov//pdf/002220026422_2024-11-19_ANNUAL.pdf,4698 ROCKY RIVER DRIVE,CLEVELAND,44135
2220026441,YWCA KIDS PLACE AT MINERVA FRANCE,https://childcaresearch.ohio.gov//pdf/002220026441_2024-10-15_ANNUAL.pdf,4990 FARVIEW DR.,COLUMBUS,43231
2220026601,LITTLE LOVES CHILD CARE,https://childcaresearch.ohio.gov//pdf/002220026601_2024-07-24_ANNUAL.pdf,6142 COLERAIN AVE,CINCINNATI,45239
2220026614,RIGHT AT SCHOOL AT BIG CREEK ELEMENTARY,https://childcaresearch.ohio.gov//pdf/002220026614_2024-11-07_ANNUAL.pdf,7247 BIG CREEK PARKWAY,MIDDLEBURG HEIGHTS,44130
2220026616,RIGHT AT SCHOOL AT GRINDSTONE ELEMENTARY,https://childcaresearch.ohio.gov//pdf/002220026616_2024-10-21_ANNUAL.pdf,191 RACE ST.,BEREA,44017
2220026704,BALANCED FAMILY ACADEMY OF CLINTONVILLE (25 E CALIFORNIA),https://childcaresearch.ohio.gov//pdf/002220026704_2024-09-16_ANNUAL.pdf,25 EAST CALIFORNIA AVE,COLUMBUS,43202
2220026916,RIVERSIDE AFTERSCHOOL 21ST CENTURY PROGRAM,https://childcaresearch.ohio.gov//pdf/002220026916_2023-11-14_ANNUAL.pdf,500 CHICAGO ST,TOLEDO,43611
2220027046,BUILDING STRONG MINDS CHILDCARE,https://childcaresearch.ohio.gov//pdf/002220027046_2024-12-03_ANNUAL.pdf,3666 E. 116TH STREET,CLEVELAND,44105
2220027110,KIDS IN THE RIDGE EARLY LEARNING PROGRAM LLC,https://childcaresearch.ohio.gov//pdf/002220027110_2024-02-22_ANNUAL.pdf,3781 MAIN ST.,MINERAL RIDGE,44440
2220027237,LAUGH N LEARN BABIES LLC,https://childcaresearch.ohio.gov//pdf/002220027237_2025-01-28_ANNUAL.pdf,1485 E. LIVINGSTON AVE,COLUMBUS,43205
2220027340,ICARE CONNECT EDUCATIONAL ACADEMY,https://childcaresearch.ohio.gov//pdf/002220027340_2024-07-24_ANNUAL.pdf,468 RICHMOND ROAD,RICHMOND HEIGHTS,44143
2230027457,KCE CHAMPIONS LLC @ ST. MARGARET OF YORK,https://childcaresearch.ohio.gov//pdf/002230027457_2024-09-09_ANNUAL.pdf,9495 COLUMBIA ROAD,LOVELAND,45140
2230027494,OWLS ACRE MONTESSORI,https://childcaresearch.ohio.gov//pdf/002230027494_2024-07-25_ANNUAL.pdf,1458 TIKI LANE,LANCASTER,43130
2230027605,KIND KIDS LEARNING ACADEMY,https://childcaresearch.ohio.gov//pdf/002230027605_2024-08-13_ANNUAL.pdf,273 WOOSTER RD. N,BARBERTON,44203
2230027725,ORIGINS SCHOOL OF LEARNING,https://childcaresearch.ohio.gov//pdf/002230027725_2024-09-11_ANNUAL.pdf,10531 JEROME ROAD,PLAIN CITY,43064
2230028020,EMPOWERED EARLY LEARNING ACADEMY - CANTON,https://childcaresearch.ohio.gov//pdf/002230028020_2024-09-10_ANNUAL.pdf,1379 GARFIELD AVE SW,CANTON,44706
300415,WILLOUGHBY UNITED METHODIST PRESCHOOL,https://childcaresearch.ohio.gov//pdf/000000300415_2024-02-06_ANNUAL.pdf,15 PUBLIC SQUARE,WILLOUGHBY,44094
300428,GREATER ACHIEVEMENT CHILD ENRICHMENT CENTER,https://childcaresearch.ohio.gov//pdf/000000300428_2024-11-25_ANNUAL.pdf,14220 HARVARD AVE.,CLEVELAND,44128
300622,HEART TO HEART ENRICHMENT CENTER,https://childcaresearch.ohio.gov//pdf/000000300622_2024-01-04_ANNUAL.pdf,3095 WEST 25TH ST.,CLEVELAND,44113
300656,LIL' SNEAKERS UNIVERSITY,https://childcaresearch.ohio.gov//pdf/000000300656_2024-01-08_ANNUAL.pdf,8282 YELLOWBRICK ROAD,MENTOR,44060
300710,"KIDS IN THE RIDGE EARLY LEARNING PROGRAM, LLC",https://childcaresearch.ohio.gov//pdf/000000300710_2024-10-24_ANNUAL.pdf,1371 DEPOT ST.,MINERAL RIDGE,44440
300739,VILLA EARLY LEARNING CENTER,https://childcaresearch.ohio.gov//pdf/000000300739_2024-12-17_ANNUAL.pdf,5620 BROADWAY AVENUE,CLEVELAND,44127
300821,YMCA GRANT LEARNING AND ENRICHMENT CENTER,https://childcaresearch.ohio.gov//pdf/000000300821_2024-09-12_ANNUAL.pdf,1470 VICTORIA BLVD.,LAKEWOOD,44107
300908,HEAVEN'S LITTLE INSPIRATIONS,https://childcaresearch.ohio.gov//pdf/000000300908_2024-11-05_ANNUAL.pdf,3767 COMMUNITY COLLEGE AVE,CLEVELAND,44115
301637,KINDERCARE LEARNING CENTER #328,https://childcaresearch.ohio.gov//pdf/000000301637_2024-07-25_ANNUAL.pdf,6145 MEADOWBROOK DRIVE,MENTOR,44060
301735,RIVERFRONT YMCA PRESCHOOL AND SCHOOL AGE ENRICHMENT,https://childcaresearch.ohio.gov//pdf/000000301735_2024-07-02_ANNUAL.pdf,544 BROAD BOULEVARD,CUYAHOGA FALLS,44221
303010,WILLOUGHBY MONTESSORI DAYSCHOOL INC,https://childcaresearch.ohio.gov//pdf/000000303010_2024-02-07_ANNUAL.pdf,5543 S O M CENTER RD,WILLOUGHBY,44094
303584,THE NEST SCHOOLS STRONGSVILLE,https://childcaresearch.ohio.gov//pdf/000000303584_2024-08-07_ANNUAL.pdf,14780 PEARL RD,STRONGSVILLE,44136
303770,CHILDTIME CHILDREN'S CENTER,https://childcaresearch.ohio.gov//pdf/000000303770_2024-10-17_ANNUAL.pdf,270 BEST ST,BEDFORD,44146
303910,CLEVELAND CHILD CARE INC (GILBERT),https://childcaresearch.ohio.gov//pdf/000000303910_2024-08-14_ANNUAL.pdf,3274 W 58TH ST,CLEVELAND,44102
304505,VALLEY CHRISTIAN PRESCHOOL,https://childcaresearch.ohio.gov//pdf/000000304505_2025-01-31_ANNUAL.pdf,87 E ORANGE ST,CHAGRIN FALLS,44022
305772,INTERGENERATIONAL DAY CARE,https://childcaresearch.ohio.gov//pdf/000000305772_2024-07-22_ANNUAL.pdf,620 EAST 185TH STREET,CLEVELAND,44119
305861,GOOD BEGINNINGS INC.,https://childcaresearch.ohio.gov//pdf/000000305861_2023-08-07_ANNUAL.pdf,5468 WARRENSVILLE CTR RD.,MAPLE,44137
306149,JERUSALEM LUTHERAN PRESCHOOL,https://childcaresearch.ohio.gov//pdf/000000306149_2025-01-15_ANNUAL.pdf,9282 ACME ROAD,SEVILLE,44273
306923,BETHESDA CHILDCARE CENTER,https://childcaresearch.ohio.gov//pdf/000000306923_2024-07-26_ANNUAL.pdf,28607 WOLF ROAD,BAY VILLAGE,44140
306927,"KIDDIE KAMPUS CHILD ENRICHMENT CENTER, INC",https://childcaresearch.ohio.gov//pdf/000000306927_2023-12-19_ANNUAL.pdf,20 W. GRACE STREET,BEDFORD,44146
308498,KINDERCARE OF AVON,https://childcaresearch.ohio.gov//pdf/000000308498_2025-01-22_ANNUAL.pdf,35680 DETROIT RD,AVON,44011
400023,WORTHINGTON PRESCHOOL,https://childcaresearch.ohio.gov//pdf/000000400023_2025-01-16_ANNUAL.pdf,773 N HIGH ST,WORTHINGTON,43085
400025,CARE AFTER SCHOOL - WORTHINGTON ESTATES,https://childcaresearch.ohio.gov//pdf/000000400025_2024-11-13_ANNUAL.pdf,6760 RIEBER ST,WORTHINGTON,43085
400142,MOONLIGHT CHILD CARE,https://childcaresearch.ohio.gov//pdf/000000400142_2025-01-15_ANNUAL.pdf,4656 W. BROAD ST,COLUMBUS,43228
400193,MIAMI VALLEY CDC-MEDWAY,https://childcaresearch.ohio.gov//pdf/000000400193_2024-09-09_ANNUAL.pdf,116 MIDDLE STREET,MEDWAY,45341
400566,WORLD OF WONDERMENT CDC,https://childcaresearch.ohio.gov//pdf/000000400566_2024-11-14_ANNUAL.pdf,215 N. 5TH STREET,KIRKERSVILLE,43033
400748,MILESTONE LANE,https://childcaresearch.ohio.gov//pdf/000000400748_2024-12-18_ANNUAL.pdf,201 N. GALENA RD.,SUNBURY,43074
400914,FAITH LUTHERAN CHRISTIAN PRESCHOOL,https://childcaresearch.ohio.gov//pdf/000000400914_2024-12-11_ANNUAL.pdf,170 MANSFIELD AVE,MT VERNON,43050
401127,PRIMROSE SCHOOL OF CANAL WINCHESTER,https://childcaresearch.ohio.gov//pdf/000000401127_2025-01-07_ANNUAL.pdf,6375 WINCHESTER BLVD,CANAL WINCHESTER,43110
401151,CITY CENTER CHILDCARE,https://childcaresearch.ohio.gov//pdf/000000401151_2024-08-12_ANNUAL.pdf,3721 BROADWAY,GROVE CITY,43123
401446,CREATIVE WORLD OF LEARNING - SPRINGFIELD,https://childcaresearch.ohio.gov//pdf/000000401446_2024-08-07_ANNUAL.pdf,332 KENSINGTON PLACE S,SPRINGFIELD,45503
402337,TRINITY LUTHERAN CHILD DEVELOPMENT CENTER,https://childcaresearch.ohio.gov//pdf/000000402337_2025-01-09_ANNUAL.pdf,18974 STATE ROUTE 12,ARCADIA,44804
402455,THE OHIO STATE UNIVERSITY CHILD CARE PROGRAM,https://childcaresearch.ohio.gov//pdf/000000402455_2024-01-31_ANNUAL.pdf,725 ACKERMAN RD,COLUMBUS,43202
402850,HOLY TRINITY CHILD DEVELOPMENT CENTER,https://childcaresearch.ohio.gov//pdf/000000402850_2024-11-07_ANNUAL.pdf,2001 NORTHWEST BOULEVARD,COLUMBUS,43212
403106,MAYWOOD LEARNING CENTER,https://childcaresearch.ohio.gov//pdf/000000403106_2025-01-02_ANNUAL.pdf,1029 S BROAD ST,LANCASTER,43130
403687,YMCA OF DARKE COUNTY CHILD DEVELOPMENT CENTER,https://childcaresearch.ohio.gov//pdf/000000403687_2024-11-26_ANNUAL.pdf,301 WAGNER AVE BOX 128,GREENVILLE,45331
403711,LA PETITE ACADEMY,https://childcaresearch.ohio.gov//pdf/000000403711_2024-11-13_ANNUAL.pdf,50 BANNOCKBURN BLVD,BLACKLICK,43004
403814,YOUNG LEARNER'S WORLD OF BEAVERCREEK,https://childcaresearch.ohio.gov//pdf/000000403814_2023-11-29_ANNUAL.pdf,2308 LAKEVIEW DRIVE,BEAVERCREEK,45431
403871,OHIOHEALTH CHILDREN'S CENTER,https://childcaresearch.ohio.gov//pdf/000000403871_2024-10-28_ANNUAL.pdf,835 THOMAS LANE,COLUMBUS,43214
404833,THE PLAY AND LEARN EXPRESS,https://childcaresearch.ohio.gov//pdf/000000404833_2025-01-08_ANNUAL.pdf,369 N HIGH STREET,CHILLICOTHE,45601
405976,"BRIGHT BEGINNINGS, INC.",https://childcaresearch.ohio.gov//pdf/000000405976_2024-08-20_ANNUAL.pdf,2973 LANTZ ROAD,BEAVERCREEK,45434
406485,GREENE STREET DAY CARE/PRESCHOOL,https://childcaresearch.ohio.gov//pdf/000000406485_2024-11-26_ANNUAL.pdf,415 W GREENE ST,PIQUA,45356
407431,LAUGH AND LEARN DAY CARE LLC,https://childcaresearch.ohio.gov//pdf/000000407431_2024-12-10_ANNUAL.pdf,295 N LONG STREET,ASHVILLE,43103
407667,INDIAN SPRINGS Y-CLUB,https://childcaresearch.ohio.gov//pdf/000000407667_2024-11-04_ANNUAL.pdf,3828 HOME ROAD,POWELL,43065
408218,LEADS HEAD START UTICA,https://childcaresearch.ohio.gov//pdf/000000408218_2024-12-03_ANNUAL.pdf,308 N. MAIN STREET,UTICA,43080
408230,HHWP HEAD START- FOREST CENTER,https://childcaresearch.ohio.gov//pdf/000000408230_2023-11-15_ANNUAL.pdf,111 EAST DIXON STREET,FOREST,45843
409630,JC KIDS DAYCARE & LEARNING CENTER,https://childcaresearch.ohio.gov//pdf/000000409630_2024-11-14_ANNUAL.pdf,464 STEWART ROAD,MANSFIELD,44905
409802,MEADOW VIEW CHRISTIAN PRESCHOOL,https://childcaresearch.ohio.gov//pdf/000000409802_2024-10-15_ANNUAL.pdf,6750 RAIDERS ROAD,FRAZEYSBURG,43822
410578,JUBBA DAYCARE WEST INC,https://childcaresearch.ohio.gov//pdf/000000410578_2025-01-22_ANNUAL.pdf,3770 WEST BROAD ST #70,COLUMBUS,43228
500187,GLCAP CHILD DEVELOPMENT PROGRAM - GENOA,https://childcaresearch.ohio.gov//pdf/000000500187_2024-10-07_ANNUAL.pdf,1224 WEST ST,GENOA,43430
500276,"A RAINBOW'S TREASURE, LLC",https://childcaresearch.ohio.gov//pdf/000000500276_2024-07-15_ANNUAL.pdf,4725 DORR ST,TOLEDO,43615
500278,CAREBARE CHILDCARE LLC,https://childcaresearch.ohio.gov//pdf/000000500278_2024-12-10_ANNUAL.pdf,6214 N. SUMMIT ST,TOLEDO,43611
500327,LITTLE MIRACLES MONTESSORI SCHOOL-ST ELIAS,https://childcaresearch.ohio.gov//pdf/000000500327_2024-02-27_ANNUAL.pdf,4940 HARROUN RD,SYLVANIA,43560
501156,CHILD'S WORLD PRESCHOOL,https://childcaresearch.ohio.gov//pdf/000000501156_2024-10-15_ANNUAL.pdf,300 SHORT-BUEHRER RD,ARCHBOLD,43502
501304,COMMUNITY CHILD CARE CENTER,https://childcaresearch.ohio.gov//pdf/000000501304_2024-10-09_ANNUAL.pdf,58 E MAIN ST,NEW LONDON,44851
501509,CROSSWOOD UNITED METHODIST CHRISTIAN PRESCHOOL,https://childcaresearch.ohio.gov//pdf/000000501509_2024-10-08_ANNUAL.pdf,1551 RICHLAND RD,MARION,43302
502522,POPLAR RIDGE TRAINING STATION,https://childcaresearch.ohio.gov//pdf/000000502522_2024-11-18_ANNUAL.pdf,06970 DOMERSVILLE RD,DEFIANCE,43512
502926,YMCA CHILD CARE @ ANDERSON FAMILY ENRICHMENT CENTER,https://childcaresearch.ohio.gov//pdf/000000502926_2024-07-11_ANNUAL.pdf,2100 S HOLLAND SYLVANIA RD,MAUMEE,43537
503231,CENTRAL HEAD START,https://childcaresearch.ohio.gov//pdf/000000503231_2024-02-06_ANNUAL.pdf,540 S. CENTRAL,LIMA,45804
503339,WEE CARE LEARNING CENTER,https://childcaresearch.ohio.gov//pdf/000000503339_2024-02-27_ANNUAL.pdf,10485 VAN WERT DECATUR RD,VAN WERT,45891
504167,IMAGINATIVE BEGINNINGS EARLY LEARNING CENTER LLC,https://childcaresearch.ohio.gov//pdf/000000504167_2024-10-24_ANNUAL.pdf,4937 WOODVILLE RD,NORTHWOOD,43619
